PK;NOMBRE;DESCRIPCION-ENTIDAD;HORARIO;EQUIPAMIENTO;TRANSPORTE;DESCRIPCION;ACCESIBILIDAD;CONTENT-URL;NOMBRE-VIA;CLASE-VIAL;TIPO-NUM;NUM;PLANTA;PUERTA;ESCALERAS;ORIENTACION;LOCALIDAD;PROVINCIA;CODIGO-POSTAL;COD-BARRIO;BARRIO;COD-DISTRITO;DISTRITO;COORDENADA-X;COORDENADA-Y;LATITUD;LONGITUD;COD-BARRIO;COD-DISTRITO;TELEFONO;FAX;EMAIL;TIPO
6408;Centro de Enseñanza Superior Cardenal Cisneros;;;;Metro: Lista (línea 4), Núñez de Balboa (líneas 5 y 9), Diego de León (líneas 4, 5 y 6).  Bus: 1, 74, 26, 61.  Bicimad: Estaciones 144 (calle Juan Bravo, 50), 186 (calle General Pardiñas, 56).  Aparcamiento: Marqués de Salamanca (25), plaza Marqués de Salamanca.;Titulaciones   Psicología. Derecho. Administración y Dirección de Empresas. Derecho - Administración y Dirección de Empresas.  Másteres y posgrados.;3;http://www.madrid.es/sites/v/index.jsp?vgnextchannel=bfa48ab43d6bb410VgnVCM100000171f5a0aRCRD&vgnextoid=ea1cf3216571c010VgnVCM1000000b205a0aRCRD;GENERAL DÍAZ PORLIER;CALLE;V;58;;;;;MADRID;MADRID;28006;5;LISTA;4;SALAMANCA;442606;4475777;4.043.064.439.409.120;-3.676.657.274.338.680;913 096 120  / 914 028 981;;secretaria@universidadcisneros.es;/contenido/entidadesYorganismos/Universidades/OtrosCentrosUniversitarios; ;
6368;Centro de Enseñanza Superior en Humanidades y Ciencias de la Educación Don Bosco;;;;Metro: Francos Rodríguez (línea 7).  Bus: 64, 44.;Titulaciones   Grado de Maestro en Educación Primaria. Grado de Maestro en Educación Infantil. Grado en Educación Social. Grado en Pedagogía. Menciones Educación Primaria.   Másteres y postgrados.;3;http://www.madrid.es/sites/v/index.jsp?vgnextchannel=bfa48ab43d6bb410VgnVCM100000171f5a0aRCRD&vgnextoid=cff8ae10c471c010VgnVCM1000000b205a0aRCRD;MARÍA AUXILIADORA;CALLE;V;9;;;;;MADRID;MADRID;28040;3;CIUDAD UNIVERSITARIA;9;MONCLOA-ARAVACA;439342;4478816;40.457.789.320.837.200;-3.715.425.578.651.150;914 500 472;;;/contenido/entidadesYorganismos/Universidades/OtrosCentrosUniversitarios; ;
7029862;Centro de Enseñanza Superior Villanueva;;;;Metro: Paco de Lucía (línea 9).  Bus: 178.  Cercanías Renfe: Mirasierra-Paco de Lucía (líneas C3, C7, C8 y Regional).;Titulaciones:   Administración y Dirección de Empresas. Derecho. Marketing. Periodismo. Publicidad y RR.PP. Comunicación Audiovisual. Psicología. Educación Infantil. Educación Primaria.  Másteres y postgrados.;3;http://www.madrid.es/sites/v/index.jsp?vgnextchannel=bfa48ab43d6bb410VgnVCM100000171f5a0aRCRD&vgnextoid=d4d1e0ecb9eaf310VgnVCM1000000b205a0aRCRD;COSTA BRAVA;CALLE;V;2;;;;y 6;MADRID;MADRID;28034;7;MIRASIERRA;8;FUENCARRAL-EL PARDO;440508;4483040;4.049.594.165.711.770;-3.702.048.289.834.190;917 340 413;;;/contenido/entidadesYorganismos/Universidades/OtrosCentrosUniversitarios; ;
6696;Centro Superior de Diseño y Moda de Madrid;Centro adscrito a la Universidad Politécnica de Madrid;;;Metro: Sierra de Guadalupe (línea 1)  Bus: E   Renfe: Vallecas  (C7, C2);Grado en Diseño de Moda;3;http://www.madrid.es/sites/v/index.jsp?vgnextchannel=bfa48ab43d6bb410VgnVCM100000171f5a0aRCRD&vgnextoid=16c17b503a71c010VgnVCM1000000b205a0aRCRD;VALENCIA;CARRETERA;T;7;;;;Bloque I;MADRID;MADRID;28030;5;FONTARRON;14;MORATALAZ;444288;4473008;4.040.582.313.350.450;-36.565.743.766.748.800;913 310 126;;informacion.csdmm@upm.es;/contenido/entidadesYorganismos/Universidades/OtrosCentrosUniversitarios; ;
6383;Centro Superior de Estudios Universitarios La Salle;;;Estudios:   Educación y Social   Grados Universitarios en Educación. Grados Universitarios en CC Sociales. Grados Universitarios en Transmedia. Posgrados. Ciclos Formativos.   Salud   Grados Universitarios en Ciencias de la Salud. Másters Oficiales. Posgrados. Ciclos Formativos.   Religión   Grados Universitarios en Ciencias Religiosas. Posgrados.;Bus: 161.;;3;http://www.madrid.es/sites/v/index.jsp?vgnextchannel=bfa48ab43d6bb410VgnVCM100000171f5a0aRCRD&vgnextoid=5289ae10c471c010VgnVCM1000000b205a0aRCRD;LA SALLE;CALLE;V;10;;;;;MADRID;MADRID;28023;5;VALDEMARIN;9;MONCLOA-ARAVACA;433704;4479806;4.046.627.682.124.750;-37.820.191.806.815.100;917 401 980;913 571 730;;/contenido/entidadesYorganismos/Universidades/EscuelasUniversitarias; ;
6533;Colegio Mayor África;;;Tipo mixta.;Metro: Vicente Aleixandre (línea 6).  Bus: 132, F.;;1;http://www.madrid.es/sites/v/index.jsp?vgnextchannel=bfa48ab43d6bb410VgnVCM100000171f5a0aRCRD&vgnextoid=938b79262ef5d010VgnVCM1000000b205a0aRCRD;RAMIRO DE MAEZTU;CALLE;V;8;;;;;MADRID;MADRID;28040;3;CIUDAD UNIVERSITARIA;9;MONCLOA-ARAVACA;439191;4477869;4.044.924.734.199.120;-3.717.115.673.509.430;915 540 104;;info.africa@eoi.es;/contenido/entidadesYorganismos/Universidades/ColegiosMayores; ;
10297377;Colegio Mayor Alcalá;;;Tipo masculina.;Metro: Vicente Aleixandre (línea 6).  Bus: F, 132, C2, C1.;;0;http://www.madrid.es/sites/v/index.jsp?vgnextchannel=bfa48ab43d6bb410VgnVCM100000171f5a0aRCRD&vgnextoid=93179fc26c5fa510VgnVCM2000001f4a900aRCRD;DON RAMON MENENDEZ PIDAL;CALLE;V;2;;;;;MADRID;MADRID;28040;3;CIUDAD UNIVERSITARIA;9;MONCLOA-ARAVACA;438986;4477692;4.044.764.691.689.500;-37.195.043.010.881.800;915 533 004;915 549 548;info@cmalcala.es;/contenido/entidadesYorganismos/Universidades/ColegiosMayores; ;
10297407;Colegio Mayor Alcor;;;Tipo femenina.;Metro: Vicente Aleixandre (línea 6), Guzmán el Bueno (línea 6 y 7).  Bus: 2, 44.  Bicimad: Estación 203 (calle General Ampudia, 2).;;1;http://www.madrid.es/sites/v/index.jsp?vgnextchannel=bfa48ab43d6bb410VgnVCM100000171f5a0aRCRD&vgnextoid=0b19849d706fa510VgnVCM2000001f4a900aRCRD;GENERAL AMPUDIA;CALLE;V;7;;;;;MADRID;MADRID;28003;6;VALLEHERMOSO;7;CHAMBERI;439342;4477200;4.044.324.083.439.390;-37.152.595.164.598.500;915 339 208;;info@cmalcor.com;/contenido/entidadesYorganismos/Universidades/ColegiosMayores; ;
6507;Colegio Mayor Antonio de Nebrija;;;Tipo mixta.;Bus: U.;;0;http://www.madrid.es/sites/v/index.jsp?vgnextchannel=bfa48ab43d6bb410VgnVCM100000171f5a0aRCRD&vgnextoid=77453b54d771c010VgnVCM1000000b205a0aRCRD;SENECA;AVENIDA;V;8;;;;;MADRID;MADRID;28040;3;CIUDAD UNIVERSITARIA;9;MONCLOA-ARAVACA;438198;4476436;4.043.627.417.989.220;-3.728.673.853.584.000;913 941 005;;direccion_nebrija@rect.ucm.es / dnebri@net.ucm.es;/contenido/entidadesYorganismos/Universidades/ColegiosMayores; ;
6548;Colegio Mayor Aquinas (Santo Tomás de Aquino);;;Tipo masculina.;Bus: 132.;;1;http://www.madrid.es/sites/v/index.jsp?vgnextchannel=bfa48ab43d6bb410VgnVCM100000171f5a0aRCRD&vgnextoid=b3e73b54d771c010VgnVCM1000000b205a0aRCRD;LEONARDO PRIETO CASTRO;CALLE;V;6;;;;;MADRID;MADRID;28040;3;CIUDAD UNIVERSITARIA;9;MONCLOA-ARAVACA;438791;4478182;4.045.204.669.033.710;-37.218.508.847.849.600;915 438 800;;;/contenido/entidadesYorganismos/Universidades/ColegiosMayores; ;
10297432;Colegio Mayor Argentino Nuestra Señora de Luján;;;Tipo mixta.;Bus: 160, 161, 46, U, A.;;0;http://www.madrid.es/sites/v/index.jsp?vgnextchannel=bfa48ab43d6bb410VgnVCM100000171f5a0aRCRD&vgnextoid=341d849d706fa510VgnVCM2000001f4a900aRCRD;MARTIN FIERRO;CALLE;V;3;;;;;MADRID;MADRID;28040;3;CIUDAD UNIVERSITARIA;9;MONCLOA-ARAVACA;437941;4476419;4.043.610.189.927.620;-37.317.021.070.491.200;911 812 050;915 446 001;administracion@cmanslujan.com;/contenido/entidadesYorganismos/Universidades/ColegiosMayores; ;
10297437;Colegio Mayor Barberán y Collar;;;Tipo mixta.;Bus: 160, 161, A, 46.;;0;http://www.madrid.es/sites/v/index.jsp?vgnextchannel=bfa48ab43d6bb410VgnVCM100000171f5a0aRCRD&vgnextoid=20cd849d706fa510VgnVCM2000001f4a900aRCRD;SENECA;AVENIDA;V;16;;;;;MADRID;MADRID;28040;3;CIUDAD UNIVERSITARIA;9;MONCLOA-ARAVACA;437816;4476247;4.043.454.312.015.340;-37.331.589.657.126.600;916 020 300;;cmubarberan@mde.es;/contenido/entidadesYorganismos/Universidades/ColegiosMayores; ;
10297474;Colegio Mayor Casa Do Brasil;;;Tipo mixta.;Metro: Ciudad Universitaria (línea 6).  Bus: 132, 133, 162, 46, 82, 83, G, U, 160, 161, A.;;0;http://www.madrid.es/sites/v/index.jsp?vgnextchannel=bfa48ab43d6bb410VgnVCM100000171f5a0aRCRD&vgnextoid=d8b0849d706fa510VgnVCM2000001f4a900aRCRD;MEMORIA;AVENIDA;V;3;;;;;MADRID;MADRID;28040;3;CIUDAD UNIVERSITARIA;9;MONCLOA-ARAVACA;438486;4476684;404.385.296.144.669;-37.253.024.686.096.700;914 551 560;;sec@casadobrasil.es;/contenido/entidadesYorganismos/Universidades/ColegiosMayores; ;
10297556;Colegio Mayor Chaminade;;;Tipo mixta.;Metro: Guzmán el Bueno (línea 6 y 7), Vicente Aleixandre (línea 6).  Bus: 132, F, C2, C1.;;1;http://www.madrid.es/sites/v/index.jsp?vgnextchannel=bfa48ab43d6bb410VgnVCM100000171f5a0aRCRD&vgnextoid=fce1849d706fa510VgnVCM2000001f4a900aRCRD;JUAN XXIII;PASEO;V;9;;;;;MADRID;MADRID;28040;3;CIUDAD UNIVERSITARIA;9;MONCLOA-ARAVACA;439137;4477657;4.044.734.269.189.940;-37.177.204.203.755.100;915 545 400;;secretaria@fugjchaminade.es;/contenido/entidadesYorganismos/Universidades/ColegiosMayores; ;
10297714;Colegio Mayor Diego de Covarrubias;;;Tipo mixta.;Bus: U, 160, 161, A.;;0;http://www.madrid.es/sites/v/index.jsp?vgnextchannel=bfa48ab43d6bb410VgnVCM100000171f5a0aRCRD&vgnextoid=8f15849d706fa510VgnVCM2000001f4a900aRCRD;SENECA;AVENIDA;V;10;;;;;MADRID;MADRID;28040;3;CIUDAD UNIVERSITARIA;9;MONCLOA-ARAVACA;438214;4476373;4.043.570.784.001.130;-37.284.790.953.706.000;913 941 030;913 941 158;cmm@pas.ucm.es;/contenido/entidadesYorganismos/Universidades/ColegiosMayores; ;
10297748;Colegio Mayor Elías Ahúja;;;Tipo masculina.;Bus: 132, F, 44.;;0;http://www.madrid.es/sites/v/index.jsp?vgnextchannel=bfa48ab43d6bb410VgnVCM100000171f5a0aRCRD&vgnextoid=ba16849d706fa510VgnVCM2000001f4a900aRCRD;RECTOR ROYO-VILLANOVA;CALLE;V;4;;;;;MADRID;MADRID;28040;3;CIUDAD UNIVERSITARIA;9;MONCLOA-ARAVACA;439345;4478044;4.045.084.414.412.480;-3.715.304.747.021.530;915 337 700;;info@eliasahuja.org;/contenido/entidadesYorganismos/Universidades/ColegiosMayores; ;
6522;Colegio Mayor Fundación SEPI;;;Tipo mixta.;Metro: Vicente Aleixandre (línea 6).  Bus: F, C2, 132, C1.;;1;http://www.madrid.es/sites/v/index.jsp?vgnextchannel=bfa48ab43d6bb410VgnVCM100000171f5a0aRCRD&vgnextoid=a3163b54d771c010VgnVCM1000000b205a0aRCRD;GREGORIO DEL AMO;AVENIDA;V;2;;;;;MADRID;MADRID;28040;3;CIUDAD UNIVERSITARIA;9;MONCLOA-ARAVACA;439043;4477610;4.044.691.241.011.280;-37.188.243.117.013.300;915 336 812 / 915 338 602 / 915 338 603;915 548 758;colegiomayor@fundacionsepi.es;/contenido/entidadesYorganismos/Universidades/ColegiosMayores; ;
6520;Colegio Mayor Jaime del Amo;;;Tipo masculina.;Metro: Vicente Aleixandre (línea 6).  Bus: 132, F.;;0;http://www.madrid.es/sites/v/index.jsp?vgnextchannel=bfa48ab43d6bb410VgnVCM100000171f5a0aRCRD&vgnextoid=ed563b54d771c010VgnVCM1000000b205a0aRCRD;GREGORIO DEL AMO;AVENIDA;V;5;;;;;MADRID;MADRID;28040;3;CIUDAD UNIVERSITARIA;9;MONCLOA-ARAVACA;438859;4477699;4.044.581.887.627.950;-37.222.677.252.309.000;915 540 804;915 547 066;secretaria@jaimedelamo.org;/contenido/entidadesYorganismos/Universidades/ColegiosMayores; ;
6521;Colegio Mayor Jorge Juan;;;Tipo mixta.;Bus: 160, 161, A, 46, U.;;0;http://www.madrid.es/sites/v/index.jsp?vgnextchannel=bfa48ab43d6bb410VgnVCM100000171f5a0aRCRD&vgnextoid=70763b54d771c010VgnVCM1000000b205a0aRCRD;SENECA;AVENIDA;V;14;;;;;MADRID;MADRID;28040;3;CIUDAD UNIVERSITARIA;9;MONCLOA-ARAVACA;437936;4476288;4.043.492.142.749.530;-37.317.482.607.656.700;915 507 100;915 507 244;secretaria@cmjorgejuan.es;/contenido/entidadesYorganismos/Universidades/ColegiosMayores; ;
6523;Colegio Mayor Juan Luis Vives;;;Tipo mixta.;Metro: Plaza de Castilla (líneas 1, 9 y 10).  Bus: 107, 129, 70, 174, 150.  Bicimad: Estación 255 (calle General López Pozas, 2).;;1;http://www.madrid.es/sites/v/index.jsp?vgnextchannel=bfa48ab43d6bb410VgnVCM100000171f5a0aRCRD&vgnextoid=03863b54d771c010VgnVCM1000000b205a0aRCRD;FRANCISCO SUAREZ;CALLE;V;7;;;;;MADRID;MADRID;28036;5;NUEVA ESPAÑA;5;CHAMARTIN;441961;4479597;4.046.502.103.311.070;-3.684.598.375.537.020;914 979 900;;cmluisvives@uam.es;/contenido/entidadesYorganismos/Universidades/ColegiosMayores; ;
6524;Colegio Mayor Juan XXIII Roncalli;;;Tipo femenina.;Metro: Vicente Aleixandre (línea 6).  Bus: 132, F, C2.;;1;http://www.madrid.es/sites/v/index.jsp?vgnextchannel=bfa48ab43d6bb410VgnVCM100000171f5a0aRCRD&vgnextoid=e808a4ea6871c010VgnVCM1000000b205a0aRCRD;RAMIRO DE MAEZTU;CALLE;V;3;;;;;MADRID;MADRID;28040;3;CIUDAD UNIVERSITARIA;9;MONCLOA-ARAVACA;439111;4477845;4.044.903.436.609.760;-37.180.450.242.710.700;915 339 408 / 915 339 409;;direccion@roncalli.es;/contenido/entidadesYorganismos/Universidades/ColegiosMayores; ;
6527;Colegio Mayor Loyola;;;Tipo mixta.;Metro: Vicente Aleixandre (línea 6), Guzmán el Bueno (líneas 6 y 7).  Bus: 132, F.;;1;http://www.madrid.es/sites/v/index.jsp?vgnextchannel=bfa48ab43d6bb410VgnVCM100000171f5a0aRCRD&vgnextoid=95963b54d771c010VgnVCM1000000b205a0aRCRD;JUAN XXIII;PASEO;V;17;;;;;MADRID;MADRID;28040;3;CIUDAD UNIVERSITARIA;9;MONCLOA-ARAVACA;439332;4477948;40.449.978.389.398.100;-37.154.488.731.293.900;915 340 404;915 352 205;secretaria@cmuloyola.org;/contenido/entidadesYorganismos/Universidades/ColegiosMayores; ;
6528;Colegio Mayor Mara;;;Tipo femenina.;Metro: Vicente Aleixandre (línea 6), Guzmán el Bueno (líneas 6 y 7).  Bus: 132, F, C2.;;0;http://www.madrid.es/sites/v/index.jsp?vgnextchannel=bfa48ab43d6bb410VgnVCM100000171f5a0aRCRD&vgnextoid=28a63b54d771c010VgnVCM1000000b205a0aRCRD;JUAN XXIII;PASEO;V;15;;;;;MADRID;MADRID;28040;3;CIUDAD UNIVERSITARIA;9;MONCLOA-ARAVACA;439277;4477904;4.044.957.800.403.510;-3.716.093.224.725.080;915 536 604;;secretaria@colegiomayormara.com;/contenido/entidadesYorganismos/Universidades/ColegiosMayores; ;
6529;Colegio Mayor Marqués de la Ensenada;;;Tipo mixta.;Bus: 46, 160, 161, A.;;1;http://www.madrid.es/sites/v/index.jsp?vgnextchannel=bfa48ab43d6bb410VgnVCM100000171f5a0aRCRD&vgnextoid=bab63b54d771c010VgnVCM1000000b205a0aRCRD;SENECA;AVENIDA;V;18;;;;;MADRID;MADRID;28040;3;CIUDAD UNIVERSITARIA;9;MONCLOA-ARAVACA;437783;4476236;4.043.443.255.155.730;-37.335.468.357.846.000;915 497 100;915 495 501;info@cmumarquesdelaensenada.com;/contenido/entidadesYorganismos/Universidades/ColegiosMayores; ;
6530;Colegio Mayor Méndel;;;Tipo mixta.;Metro: Vicente Aleixandre (línea 6).  Bus: 132, F, C2.;;0;http://www.madrid.es/sites/v/index.jsp?vgnextchannel=bfa48ab43d6bb410VgnVCM100000171f5a0aRCRD&vgnextoid=4dc63b54d771c010VgnVCM1000000b205a0aRCRD;RECTOR ROYO-VILLANOVA;CALLE;V;6;;;;;MADRID;MADRID;28040;3;CIUDAD UNIVERSITARIA;9;MONCLOA-ARAVACA;439336;4478263;40.450.934.544.390.600;-37.167.090.633.777.900;915 340 700;;director@cmmendel.com;/contenido/entidadesYorganismos/Universidades/ColegiosMayores; ;
6531;Colegio Mayor Moncloa;;;Tipo masculina.;Metro: Guzmán el Bueno (línea 6 y 7), Vicente Aleixandre (línea 6).  Bus: 45, 2, C1, F, C2.  Bicimad: Estación 256 (calle Beatriz de Bobadilla, 2).;;0;http://www.madrid.es/sites/v/index.jsp?vgnextchannel=bfa48ab43d6bb410VgnVCM100000171f5a0aRCRD&vgnextoid=dfd63b54d771c010VgnVCM1000000b205a0aRCRD;MONCLOA;AVENIDA;V;3;;;;;MADRID;MADRID;28003;6;VALLEHERMOSO;7;CHAMBERI;439328;4477492;4.044.587.019.420.180;-37.154.642.696.633.100;915 338 500;;info@cmmoncloa.org;/contenido/entidadesYorganismos/Universidades/ColegiosMayores; ;
6532;Colegio Mayor Montalbán;;;Tipo masculina.;Metro:  Núñez de Balboa (líneas 5 y 9).  Bus: 61, 19, 51, 9.   Bicimad: Estación 190 (Velázquez, 91).;;0;http://www.madrid.es/sites/v/index.jsp?vgnextchannel=bfa48ab43d6bb410VgnVCM100000171f5a0aRCRD&vgnextoid=62f63b54d771c010VgnVCM1000000b205a0aRCRD;DIEGO DE LEON;CALLE;V;14;;;;;MADRID;MADRID;28006;6;CASTELLANA;4;SALAMANCA;441972;4476247;4.043.484.347.201.610;-36.841.625.162.173;915 634 971 / 915 637 298;;info@cmmontalban.com;/contenido/entidadesYorganismos/Universidades/ColegiosMayores; ;
6534;Colegio Mayor Nuestra Señora de Guadalupe;;;Tipo mixta.;Metro: Moncloa (líneas 3 y 6), Ciudad Universitaria (línea 6).  Bus: 160, 161, A, 132, 133, 162, 46, 82, 83, G, U.;;1;http://www.madrid.es/sites/v/index.jsp?vgnextchannel=bfa48ab43d6bb410VgnVCM100000171f5a0aRCRD&vgnextoid=36263b54d771c010VgnVCM1000000b205a0aRCRD;SENECA;AVENIDA;V;4;;;;;MADRID;MADRID;28040;3;CIUDAD UNIVERSITARIA;9;MONCLOA-ARAVACA;438453;4476490;404.367.795.439.933;-372.567.274.629.791;915 435 200;;info.guadalupe@eoi.es;/contenido/entidadesYorganismos/Universidades/ColegiosMayores; ;
6538;Colegio Mayor Padre Poveda;;;Tipo femenina.;Metro: Vicente Aleixandre (línea 6), Gúzman el Bueno (líneas 6 y 7).  Bus: C1, C2.  Bicimad: Estación 244 (calle Isaac Peral, 44).;;1;http://www.madrid.es/sites/v/index.jsp?vgnextchannel=bfa48ab43d6bb410VgnVCM100000171f5a0aRCRD&vgnextoid=1a273b54d771c010VgnVCM1000000b205a0aRCRD;ISAAC PERAL;CALLE;V;60;;;;;MADRID;MADRID;28040;6;VALLEHERMOSO;7;CHAMBERI;439022;4477172;4.044.296.519.201.280;-3.719.029.884.065.170;914 562 589;;secretaria@cmppoveda.es;/contenido/entidadesYorganismos/Universidades/ColegiosMayores; ;
10298280;Colegio Mayor Pío XII;;;Tipo masculina.;Metro: Vicente Aleixandre (línea 6).  Bus: C1, C2, 132, F.;;0;http://www.madrid.es/sites/v/index.jsp?vgnextchannel=bfa48ab43d6bb410VgnVCM100000171f5a0aRCRD&vgnextoid=5b721beab56fa510VgnVCM2000001f4a900aRCRD;JUAN XXIII;PASEO;V;3;;;;;MADRID;MADRID;28040;3;CIUDAD UNIVERSITARIA;9;MONCLOA-ARAVACA;438935;4477389;40.444.913.629.078.700;-3.720.076.539.464.820;915 141 700 / 915 141 711;;info@colegiomayorpioxii.es;/contenido/entidadesYorganismos/Universidades/ColegiosMayores; ;
6545;Colegio Mayor Santa María de Europa;;;Tipo mixta.;Metro: Islas Filipinas (línea 7), Canal (línea 2 y 7).  Bus: 12, 2.  Bicimad: Estaciones 245 (calle Galileo, 63), 202 (calle Santander esquina con Avenida de Filipinas).;;0;http://www.madrid.es/sites/v/index.jsp?vgnextchannel=bfa48ab43d6bb410VgnVCM100000171f5a0aRCRD&vgnextoid=e6873b54d771c010VgnVCM1000000b205a0aRCRD;CEA BERMUDEZ;CALLE;V;17;;;;;MADRID;MADRID;28003;2;ARAPILES;7;CHAMBERI;439858;4476690;4.043.868.402.339.630;-37.091.271.764.184.800;915 336 200;;ccmm@ucm.es;/contenido/entidadesYorganismos/Universidades/ColegiosMayores; ;
6544;Colegio Mayor Santa María del Pino;;;Tipo femenina.;Metro: Islas Filipinas (línea 7).  Bus: 44, 12, C1, C2.  Bicimad: Estaciones 244 (calle Isaac Peral, 44), 203 (General Ampudia, 2), 128 (calle Cea Bermúdez, 59).;;1;http://www.madrid.es/sites/v/index.jsp?vgnextchannel=bfa48ab43d6bb410VgnVCM100000171f5a0aRCRD&vgnextoid=0ca73b54d771c010VgnVCM1000000b205a0aRCRD;SAN FRANCISCO DE SALES;PASEO;V;13;;;;;MADRID;MADRID;28003;6;VALLEHERMOSO;7;CHAMBERI;439255;4476886;40.440.405.842.741.500;-37.162.552.923.226.000;915 432 409;915 495 022;secretaria@colegiomayorpino.com;/contenido/entidadesYorganismos/Universidades/ColegiosMayores; ;
6546;Colegio Mayor Santa Mónica;;;Tipo femenina.;Metro: Vicente Aleixandre (línea 6), Guzmán el Bueno (líneas 6 y 7).  Bus: 132, C2, F.;;0;http://www.madrid.es/sites/v/index.jsp?vgnextchannel=bfa48ab43d6bb410VgnVCM100000171f5a0aRCRD&vgnextoid=9eb73b54d771c010VgnVCM1000000b205a0aRCRD;JUAN XXIII;PASEO;V;19;;;;;MADRID;MADRID;28040;3;CIUDAD UNIVERSITARIA;9;MONCLOA-ARAVACA;439395;4477985;4.045.031.629.573.980;-37.147.095.093.706.000;915 333 001;;secretaria@cmumonica.es;/contenido/entidadesYorganismos/Universidades/ColegiosMayores; ;
46080;Colegio Mayor Santa Teresa de Jesús;;;Tipo mixta.;Bus: 160, 161, A, U, 46.;;1;http://www.madrid.es/sites/v/index.jsp?vgnextchannel=bfa48ab43d6bb410VgnVCM100000171f5a0aRCRD&vgnextoid=a147598d1351c010VgnVCM1000000b205a0aRCRD;SENECA;AVENIDA;V;12;;;;;MADRID;MADRID;28040;3;CIUDAD UNIVERSITARIA;9;MONCLOA-ARAVACA;438144;4476534;4.043.527.112.820.390;-3.730.584.824.196.920;913 941 008;;;/contenido/entidadesYorganismos/Universidades/ColegiosMayores; ;
6552;Colegio Mayor Somosierra;;;Tipo femenina.;Metro: Concha Espina (línea 9), Colombia (líneas 8 y 9).  Bus: 52, 120, 43.;;3;http://www.madrid.es/sites/v/index.jsp?vgnextchannel=bfa48ab43d6bb410VgnVCM100000171f5a0aRCRD&vgnextoid=46f73b54d771c010VgnVCM1000000b205a0aRCRD;VICTOR DE LA SERNA;CALLE;V;13;;;;;MADRID;MADRID;28016;4;HISPANOAMERICA;5;CHAMARTIN;442967;4478297;4.045.338.463.229.640;-3.672.607.650.534.370;914 136 011 - 618 746 081;;cmsomosierra@cmsomosierra.com;/contenido/entidadesYorganismos/Universidades/ColegiosMayores; ;
6519;Colegio Mayor Universitario Isabel de España;;;Tipo mixta.;Metro: Vicente Aleixandre (línea 6).  Bus: 132, F.;;0;http://www.madrid.es/sites/v/index.jsp?vgnextchannel=bfa48ab43d6bb410VgnVCM100000171f5a0aRCRD&vgnextoid=5b463b54d771c010VgnVCM1000000b205a0aRCRD;DON RAMON MENENDEZ PIDAL;CALLE;V;5;;;;;MADRID;MADRID;28040;3;CIUDAD UNIVERSITARIA;9;MONCLOA-ARAVACA;438945;4477782;4.044.845.466.186.270;-37.199.964.073.881.400;915 336 104;;cmisabel@cmisabel.com;/contenido/entidadesYorganismos/Universidades/ColegiosMayores; ;
6540;Colegio Mayor Universitario San Agustín;;;Tipo mixta.;Bus: U.  Bicimad: Estación 257 (avenida Juan de Herrera frente a la calle Paul Guinard).;;1;http://www.madrid.es/sites/v/index.jsp?vgnextchannel=bfa48ab43d6bb410VgnVCM100000171f5a0aRCRD&vgnextoid=3f473b54d771c010VgnVCM1000000b205a0aRCRD;ANTONIO NEBRIJA;TRAVESIA;V;4;;;;;MADRID;MADRID;28040;3;CIUDAD UNIVERSITARIA;9;MONCLOA-ARAVACA;438398;4476692;40.436.713.266.051.200;-37.276.174.551.102.000;915 505 000;;colegio@cmusa.net;/contenido/entidadesYorganismos/Universidades/ColegiosMayores; ;
6542;Colegio Mayor Universitario San Pablo;;;Tipo masculina.;Metro: Vicente Aleixandre (línea 6), Islas Filipinas (línea 7).  Bus: C2, C1.  Bicimad: Estación 24 (calle Isaac Peral, 44).;;1;http://www.madrid.es/sites/v/index.jsp?vgnextchannel=bfa48ab43d6bb410VgnVCM100000171f5a0aRCRD&vgnextoid=54773b54d771c010VgnVCM1000000b205a0aRCRD;ISAAC PERAL;CALLE;V;58;;;;;MADRID;MADRID;28040;6;VALLEHERMOSO;7;CHAMBERI;439057;4477082;4.044.215.700.197.540;-3.718.608.573.921.030;915 989 600;915 340 528;colegiomayor@cmusp.com;/contenido/entidadesYorganismos/Universidades/ColegiosMayores; ;
6549;Colegio Mayor Universitario Santillana;;;Tipo masculina.;Bus: 134.  Cercanías Renfe: Mirasierra-Paco de Lucia (líneas C3, C7, C8 y Regional).;;0;http://www.madrid.es/sites/v/index.jsp?vgnextchannel=bfa48ab43d6bb410VgnVCM100000171f5a0aRCRD&vgnextoid=21d73b54d771c010VgnVCM1000000b205a0aRCRD;MARBELLA;CALLE;V;60;;;;;MADRID;MADRID;28034;7;MIRASIERRA;8;FUENCARRAL-EL PARDO;440155;4482901;4.049.465.655.478.300;-37.062.113.507.743.100;917 355 031 / 639 40 16 12 (Whatsapp);;cmsantillana@cmsantillana.org;/contenido/entidadesYorganismos/Universidades/ColegiosMayores; ;
6553;Colegio Mayor Vedruna;;;Tipo femenina.;Metro: Guzmán El Bueno (línea 6 y 7), Vicente Aleixandre (línea 6).  Bus: 45, 2, C1, F, C2.  Bicimad: Estación 256 (avenida Reina Victoria, 68).;;1;http://www.madrid.es/sites/v/index.jsp?vgnextchannel=bfa48ab43d6bb410VgnVCM100000171f5a0aRCRD&vgnextoid=7b18a4ea6871c010VgnVCM1000000b205a0aRCRD;PRESIDENTE GARCIA MORENO;GLORIETA;V;2;;;;;MADRID;MADRID;28003;6;VALLEHERMOSO;7;CHAMBERI;439366;4477462;40.445.602.787.377.800;-3.715.001.546.487.530;915 344 500 / 915 342 306;;recepcion@cmvedruna.org;/contenido/entidadesYorganismos/Universidades/ColegiosMayores; ;
6525;Colegio Mayor Ximénez de Cisneros;;;Tipo mixta.;Bus: U.;;0;http://www.madrid.es/sites/v/index.jsp?vgnextchannel=bfa48ab43d6bb410VgnVCM100000171f5a0aRCRD&vgnextoid=0e28a4ea6871c010VgnVCM1000000b205a0aRCRD;SENECA;AVENIDA;V;8;;;;;MADRID;MADRID;28040;3;CIUDAD UNIVERSITARIA;9;MONCLOA-ARAVACA;438198;4476436;4.043.627.417.989.220;-3.728.673.853.584.000;913 941 006;;cmucisneros.comunicacion@gmail.com;/contenido/entidadesYorganismos/Universidades/ColegiosMayores; ;
6554;Colegio Mayor Zurbarán;;;Tipo Femenina.;Metro: Concha Espina (línea 9), Colombia (líneas 8 y 9).  Bus: 52, 120, 43.;;0;http://www.madrid.es/sites/v/index.jsp?vgnextchannel=bfa48ab43d6bb410VgnVCM100000171f5a0aRCRD&vgnextoid=9048a4ea6871c010VgnVCM1000000b205a0aRCRD;VICTOR DE LA SERNA;CALLE;V;13;;;;;MADRID;MADRID;28016;4;HISPANOAMERICA;5;CHAMARTIN;442969;4478299;4.045.339.785.331.010;-36.725.926.815.275.700;915 197 425;;admisionzurbaran@gmail.com;/contenido/entidadesYorganismos/Universidades/ColegiosMayores; ;
6407;Colegio Universitario de Estudios Financieros (CUNEF);;;;Metro: Francos Rodríguez (línea 7).  Bus: 132.;Titulaciones:   Administración y Dirección de Empresas.  Derecho y Administración y Dirección de Empresas.  Derecho. Economía.  Másteres y postgrados.;3;http://www.madrid.es/sites/v/index.jsp?vgnextchannel=bfa48ab43d6bb410VgnVCM100000171f5a0aRCRD&vgnextoid=004cf3216571c010VgnVCM1000000b205a0aRCRD;PIRINEOS;CALLE;V;55;;;;;MADRID;MADRID;28040;3;CIUDAD UNIVERSITARIA;9;MONCLOA-ARAVACA;439058;4478350;4.045.357.920.636.980;-3.718.717.277.671.810;914 445 161;;info@cunef.edu;/contenido/entidadesYorganismos/Universidades/OtrosCentrosUniversitarios; ;
6498;Escuela de Práctica Jurídica;;;;Metro: Noviciado (línea 2), Plaza de España (línea 3 y 10).  Bus: 002, 147, 3, 39, 25.  Bicimad: Estaciones 15 (calle San Vicente Ferrer, 64), 116b (calle Princesa, 5).  Aparcamiento: Mostenses (50) plaza Mostenses y calle Ricardo León.;;3;http://www.madrid.es/sites/v/index.jsp?vgnextchannel=bfa48ab43d6bb410VgnVCM100000171f5a0aRCRD&vgnextoid=32c07b503a71c010VgnVCM1000000b205a0aRCRD;AMANIEL;CALLE;V;2;;;;;MADRID;MADRID;28015;5;UNIVERSIDAD;1;CENTRO;439846;4475175;4.042.503.530.088.560;-37.091.370.642.279.200;915 327 391;915 230 30;epj@epj.es;/contenido/entidadesYorganismos/Universidades/OtrosCentrosUniversitarios; ;
6677;Escuela Superior de Diseño;;;;Metro: Vinateros (línea 9).  Bus: 71.  Bicimad: Estación 219 (calle Camino de los Vinateros, 108).;Estudios:   Diseño gráfico, Diseño producto, Diseño interiores, Diseño moda, Diseño espacios comerciales, Diseño interactivo.;3;http://www.madrid.es/sites/v/index.jsp?vgnextchannel=bfa48ab43d6bb410VgnVCM100000171f5a0aRCRD&vgnextoid=492ba4ea6871c010VgnVCM1000000b205a0aRCRD;CAMINO DE LOS VINATEROS;CALLE;V;106;;;;;MADRID;MADRID;28030;3;MARROQUINA;14;MORATALAZ;444948;4473366;4.040.908.310.416.650;-3.648.827.535.580.880;914 390 000;914 379 639;esd.madrid@educa.madrid.org;/contenido/entidadesYorganismos/Universidades/OtrosCentrosUniversitarios; ;
6373;Escuela Universitaria de Enfermería. Fundación Jiménez Díaz;;;Titulaciones:  Grado en enfermería. Postgrado.;Metro: Islas Filipinas (línea 7), Moncloa (línea 3 y 6).  Bus: 132, 82, 1, 44, C2, 138, 62, C1.  Bicimad: Estación 244 (calle Isaac Peral, 44).;;3;http://www.madrid.es/sites/v/index.jsp?vgnextchannel=bfa48ab43d6bb410VgnVCM100000171f5a0aRCRD&vgnextoid=27dec05ef571c010VgnVCM1000000b205a0aRCRD;REYES CATOLICOS;AVENIDA;V;2;;;;;MADRID;MADRID;28040;3;CIUDAD UNIVERSITARIA;9;MONCLOA-ARAVACA;439048;4476701;4.043.868.151.604.700;-3.718.288.587.745.240;915 504 863 / 915 504 864;;euenfermeria.fjd@fjd.es;/contenido/entidadesYorganismos/Universidades/EscuelasUniversitarias; ;
6369;Escuela Universitaria de Magisterio ESCUNI;;;;Bus: 35, 34.;Titulaciones:    Maestro Educación Infantil. Maestro Educación Primaria. Maestro en Educación Infantil y Maestro en Educación Primaria.  Másteres y postgrados.;3;http://www.madrid.es/sites/v/index.jsp?vgnextchannel=bfa48ab43d6bb410VgnVCM100000171f5a0aRCRD&vgnextoid=612fc05ef571c010VgnVCM1000000b205a0aRCRD;NUESTRA SEÑORA DE FÁTIMA;AVENIDA;V;102;;;;;MADRID;MADRID;28047;4;VISTA ALEGRE;11;CARABANCHEL;436405;4470042;4.037.853.024.498.560;-37.491.851.721.721.000;914 651 700;;info@escuni.com;/contenido/entidadesYorganismos/Universidades/EscuelasUniversitarias; ;
29971;ESERP Madrid Business School;;;;Metro: Colombia (líneas 8, 9)  Bus: 52, 11, 40, 7, 87  Bicimad: Estación 160 (calle Colombia, 7)  Aparcamiento: República Dominicana (61), Plaza República Dominicana,  calle Costa Rica y calle Alberto Alcocer;Titulaciones de grado y posgrado;3;http://www.madrid.es/sites/v/index.jsp?vgnextchannel=bfa48ab43d6bb410VgnVCM100000171f5a0aRCRD&vgnextoid=e902059cb751c010VgnVCM2000000c205a0aRCRD;COSTA RICA;CALLE;V;9;;;;;MADRID;MADRID;28016;5;NUEVA ESPAÑA;5;CHAMARTIN;442773;4478893;40.458.735.409.110.600;-3.674.957.593.336.750;913 501 212;;;/contenido/entidadesYorganismos/CentrosEducacion/CentrosFormacionProfesionalPrivadosConcertados; ;
61612;IADE Escuela de Diseño;;;Diseño de interiores, Diseño de moda, Másteres.;"Metro: Serrano (línea 4).  Bus: 1, 19, 51, 74, 9.  Cercanías Renfe: Recoletos (C1, C2, C7, C10 y Regional).  Bicimad: Estaciones 92 (calle Claudio Coello, 45) y 105 (calle Serrano, 54).  Aparcamientos: Serrano II (39), calle Serrano entre Ortega y Gasset y Hermosilla; Velázquez Ayala (42), calle Velázquez y calle Ayala.";;3;http://www.madrid.es/sites/v/index.jsp?vgnextchannel=bfa48ab43d6bb410VgnVCM100000171f5a0aRCRD&vgnextoid=d4ed8ed67151c010VgnVCM2000000c205a0aRCRD;CLAUDIO COELLO;CALLE;V;48;;;;;MADRID;MADRID;28001;1;RECOLETOS;4;SALAMANCA;441793;4475397;4.042.716.467.505.720;-36.862.066.802.199.000;915 771 728;;iade@iade.es;/contenido/entidadesYorganismos/Universidades/OtrosCentrosUniversitarios; ;
109174;Instituto de Estudios Bursátiles (IEB);;;;Metro: Banco de España (línea 2).  Bus: 19, 203, 14, 27, 37, 45, C03.  Bicimad: Estaciones 86 (plaza de Cibeles), 60 (plaza de la Independencia, 6), 65 (calle Antonio Maura, 15).  Aparcamiento: Montalbán (49), calle Montalbán entre calle Alfonso XI y paseo del Prado).;Titulaciones:   Derecho. Administración y dirección de empresas.  Másteres y postgrados.;3;http://www.madrid.es/sites/v/index.jsp?vgnextchannel=bfa48ab43d6bb410VgnVCM100000171f5a0aRCRD&vgnextoid=19e215a11a81c010VgnVCM1000000b205a0aRCRD;ALFONSO XI;CALLE;V;6;;;;;MADRID;MADRID;28014;;LOS JERÓNIMOS;;RETIRO;441408;4474455;4.041.866.066.190.480;-3.690.658.377.502.490;915 240 615;;info@ieb.es;/contenido/entidadesYorganismos/Universidades/OtrosCentrosUniversitarios; ;
97192;Instituto de Salud Carlos III. Escuela Nacional de Medicina del Trabajo;;;;Metro: Begoña, Chamartín (línea 10)  Bus: 147;;3;http://www.madrid.es/sites/v/index.jsp?vgnextchannel=bfa48ab43d6bb410VgnVCM100000171f5a0aRCRD&vgnextoid=56e94f36ff81c010VgnVCM1000000b205a0aRCRD;MELCHOR FERNANDEZ ALMAGRO;CALLE;V;3;;;;Pabellón 13;MADRID;MADRID;28029;5;LA PAZ;8;FUENCARRAL-EL PARDO;441336;4480945;40.477.120.471.647.200;-36.920.947.085.146.600;918 224 039 / 918 224 026;;secretaria.enmt@isciii.es;/contenido/entidadesYorganismos/Universidades/OtrosCentrosUniversitarios; ;
11163416;Residencia de estudiantes Ciudad Escolar;;;Tipo mixta;Bus: 712, 713, 714, 716, 717, 721, 724, 725, 726;;1;http://www.madrid.es/sites/v/index.jsp?vgnextchannel=bfa48ab43d6bb410VgnVCM100000171f5a0aRCRD&vgnextoid=ac266736b3f41710VgnVCM1000001d4a900aRCRD;COLMENAR VIEJO;CARRETERA;V;;;;;kilómetro 12,800;MADRID;MADRID;;;;;DISTRITO;441896;4481341;40.480.728.061.222.800;-36.855.147.725.793.200;917 342 700;;residenciadeestudiantes@educa.madrid.org;/contenido/entidadesYorganismos/Universidades/ColegiosMayores; ;
55233;Residencia Universitaria Augustinus Nebrija;;;Tipo mixta.;Metro: Islas Filipinas (línea 7) y Moncloa (líneas 3 y 6).  Bus: 12, 44, 1, 132, 138, 62, 82, C1.  Bicimad: Estación 128 (calle Cea Bermúdez, 59).;;1;http://www.madrid.es/sites/v/index.jsp?vgnextchannel=bfa48ab43d6bb410VgnVCM100000171f5a0aRCRD&vgnextoid=d0ae444a2951c010VgnVCM2000000c205a0aRCRD;CEA BERMUDEZ;CALLE;V;59;;;;;MADRID;MADRID;28003;1;GAZTAMBIDE;7;CHAMBERI;439315;4476722;4.043.893.284.407.240;-3.715.532.209.677.480;914 521 150;;residencias@nebrija.es;/contenido/entidadesYorganismos/Universidades/ColegiosMayores; ;
168328;Residencia Universitaria Erasmo;;;Tipo mixta.;Bus: 714, 827, 827A, 828.  Cercanías Renfe: Cantoblanco Universidad (línea C4).;;1;http://www.madrid.es/sites/v/index.jsp?vgnextchannel=bfa48ab43d6bb410VgnVCM100000171f5a0aRCRD&vgnextoid=333629ea9281c010VgnVCM1000000b205a0aRCRD;ERASMO DE ROTTERDAM;CALLE;V;5;;;;y 7;MADRID;MADRID;28049;8;EL GOLOSO;8;FUENCARRAL-EL PARDO;440807;4488835;4.054.815.866.711.100;-36.990.729.683.151.000;911 312 100;913 721 437;erasmo@resa.es;/contenido/entidadesYorganismos/Universidades/ColegiosMayores; ;
185968;Residencia Universitaria Gómez Pardo;;;Tipo mixta.;Metro: Ríos Rosas (línea 1), Cuatro Caminos (líneas 1, 2 y 6).  Bus: 45, 12, 149, 3, 37.  Bicimad: Estación 130 (calle Santa Engracia, 127).;;0;http://www.madrid.es/sites/v/index.jsp?vgnextchannel=bfa48ab43d6bb410VgnVCM100000171f5a0aRCRD&vgnextoid=7c26af5e2775e010VgnVCM2000000c205a0aRCRD;CRISTOBAL BORDIU;CALLE;V;30;;;;bis;MADRID;MADRID;28003;5;RIOS ROSAS;7;CHAMBERI;440559;4477168;40.443.040.460.238.400;-37.009.070.809.393.000;914 417 921 / 914 416 676;914 429 529;residencia@fgomezpardo.es;/contenido/entidadesYorganismos/Universidades/ColegiosMayores; ;
7614004;Residencia Universitaria José Pérez de Vargas;;;Tipo mixta.;Metro: Vicálvaro (línea 9).  Bus: 100, 106, 130, 4.;;3;http://www.madrid.es/sites/v/index.jsp?vgnextchannel=bfa48ab43d6bb410VgnVCM100000171f5a0aRCRD&vgnextoid=f15b16621fc08410VgnVCM1000000b205a0aRCRD;DAROCA;AVENIDA;V;321;;;;;MADRID;MADRID;28032;;AMBROZ;;VICALVARO;448006;4473031;40.406.270.835.359.300;-3.612.761.522.558.210;917 753 042;;administracion@residenciavicalvarourjc.com;/contenido/entidadesYorganismos/Universidades/ColegiosMayores; ;
6461002;Residencia Universitaria Nebrija Chamberí;;;Tipo mixta.;Metro: Bilbao (líneas 1 y 4), Alonso Martínez (líneas 4, 5 y 10).  Bus: 37, 40, 21, C03, 147.  Bicimad: Estaciones 124 (calle Manuel Silvela, 20), 122 (calle Santa Engracia, 14).  Aparcamientos: Fuencarral (27) calle Fuencarral entre 111 y 121, Olavide (52) plaza de Olavide.;;0;http://www.madrid.es/sites/v/index.jsp?vgnextchannel=bfa48ab43d6bb410VgnVCM100000171f5a0aRCRD&vgnextoid=1f67e1925e0c7310VgnVCM1000000b205a0aRCRD;NICASIO GALLEGO;CALLE;V;12;;;;;MADRID;MADRID;28010;3;TRAFALGAR;7;CHAMBERI;440717;4475655;4.042.942.195.581.520;-3.698.902.984.407.000;914 471 200 / 914 521 150;;residencias@nebrija.es;/contenido/entidadesYorganismos/Universidades/ColegiosMayores; ;
8154142;Residencia universitaria Nebrija - Corazonistas;;;Tipo mixta.;"Metro: Arg&amp;uuml;elles (líneas 3, 4 y 6).  Bus: 001, 1, 133, 138, 44, C2, C1, 21, C03, 002.  Bicimad: Estaciones 117 (calle Altamirano, 24) y 114 (calle Quintana, 11).  Aparcamiento: Marqués de Urquijo (63), Marqués de Urquijo entre calle Princesa y Juan Álvarez Mendizabal.";;0;http://www.madrid.es/sites/v/index.jsp?vgnextchannel=bfa48ab43d6bb410VgnVCM100000171f5a0aRCRD&vgnextoid=107861ffd35be410VgnVCM2000000c205a0aRCRD;TUTOR;CALLE;V;36;;;;;MADRID;MADRID;28008;2;ARGUELLES;9;MONCLOA-ARAVACA;439208;4475677;4.042.951.123.123.090;-37.166.937.850.967.600;915 478 800 / 914 521 150;;residencias@nebrija.es;/contenido/entidadesYorganismos/Universidades/ColegiosMayores; ;
6296;Saint Louis University Madrid Campus;;;;Metro: Vicente Aleixandre (línea 6), Guzmán el Bueno (líneas 6 y 7).  Bus: C1, C2.;Titulaciones de grado y postgrado.;3;http://www.madrid.es/sites/v/index.jsp?vgnextchannel=bfa48ab43d6bb410VgnVCM100000171f5a0aRCRD&vgnextoid=5e6b578b9671c010VgnVCM1000000b205a0aRCRD;VALLE;AVENIDA;V;34;;;;;MADRID;MADRID;28003;6;VALLEHERMOSO;7;CHAMBERI;439155;4477243;4.044.361.453.210.150;-3.717.468.514.879.230;915 545 858;;;/contenido/entidadesYorganismos/Universidades; ;
6293;Schiller International University Madrid Campus;;;;Metro: República Argentina (línea 6).  Bus: C1, C2, 16, 19, 51, 7.  Bicimad: Estación 137 (plaza de la República Argentina 6).;;3;http://www.madrid.es/sites/v/index.jsp?vgnextchannel=bfa48ab43d6bb410VgnVCM100000171f5a0aRCRD&vgnextoid=98bb578b9671c010VgnVCM1000000b205a0aRCRD;JOAQUÍN COSTA;CALLE;V;20;;;;;MADRID;MADRID;28002;1;EL VISO;5;CHAMARTIN;441902;4477463;4.044.579.288.485.750;-3.685.098.971.840.810;914 482 488;;;/contenido/entidadesYorganismos/Universidades; ;
6302;Suffolk University Madrid Campus;;;;Metro: Vicente Aleixandre (línea 6), Guzmán el Bueno (línea 7).  Bus: C1, C2.;;3;http://www.madrid.es/sites/v/index.jsp?vgnextchannel=bfa48ab43d6bb410VgnVCM100000171f5a0aRCRD&vgnextoid=609f578b9671c010VgnVCM1000000b205a0aRCRD;VIÑA;CALLE;V;3;;;;;MADRID;MADRID;28003;6;VALLEHERMOSO;7;CHAMBERI;439057;4477288;4.044.401.273.259.770;-37.186.283.366.452.700;915 335 935;;;/contenido/entidadesYorganismos/Universidades; ;
54154;Universidad Abierta de Cataluña (Universitat Oberta de Catalunya). UOC;;;;Metro: Banco de España (línea 2), Sevilla (línea 2).  Bus: 001, 10, 14, 27, 34, 37, 45, C03.  BICIMAD: Estación 29 (calle Marqués de Cubas, 25).  Aparcamiento: Cortes (46), plaza de las Cortes.;;3;http://www.madrid.es/sites/v/index.jsp?vgnextchannel=bfa48ab43d6bb410VgnVCM100000171f5a0aRCRD&vgnextoid=1737f0bde551c010VgnVCM2000000c205a0aRCRD;CORTES;PLAZA;V;4;;;;;MADRID;MADRID;28014;3;CORTES;1;CENTRO;440990;4474144;4.041.582.948.601.850;-36.955.563.094.397;915 991 188;;uocmadrid@uoc.edu;/contenido/entidadesYorganismos/Universidades; ;
6297;Universidad Antonio de Nebrija. Campus de la Dehesa de la Villa;;;;Metro: Francos Rodríguez (línea 7).  Bus: 132.;Titulaciones de grado y posgrado.;3;http://www.madrid.es/sites/v/index.jsp?vgnextchannel=bfa48ab43d6bb410VgnVCM100000171f5a0aRCRD&vgnextoid=8417c05ef571c010VgnVCM1000000b205a0aRCRD;PIRINEOS;CALLE;V;55;;;;;MADRID;MADRID;28040;3;CIUDAD UNIVERSITARIA;9;MONCLOA-ARAVACA;439057;4478349;4.045.357.063.654.990;-37.187.301.533.847.300;900 321 322 / 914 521 100;;informa@nebrija.es;/contenido/entidadesYorganismos/Universidades; ;
10109167;Universidad Antonio de Nebrija. Campus de Madrid-Princesa;;;;"Metro: Arg&amp;uuml;elles (líneas 3, 4 y 6), Ventura Rodríguez (línea 3).  Bus: 002, 21, C03, 2, 001, 1, 133, 138, 44, C1.  BICIMAD: Estaciones 57 (calle Santa Cruz de Marcenado, 24) y 123 (calle Gúzman el Bueno, 1).";Titulaciones de grado y posgrado.;3;http://www.madrid.es/sites/v/index.jsp?vgnextchannel=bfa48ab43d6bb410VgnVCM100000171f5a0aRCRD&vgnextoid=0de0e821b78e5510VgnVCM1000001d4a900aRCRD;SANTA CRUZ DE MARCENADO;CALLE;V;27;;;;;MADRID;MADRID;28015;5;UNIVERSIDAD;1;CENTRO;439522;4475677;4.042.953.411.939.230;-37.129.922.244.057.800;900 321 322 /  914 521 103;;informa@nebrija.es;/contenido/entidadesYorganismos/Universidades; ;
6922838;Universidad Antonio de Nebrija. Centro Universitario San Rafael - Nebrija;;;;Metro: Concha Espina (línea 9).  Bus: 51, 7, 120, 43.  Bicimad: Estación 148 (calle Serrano, 210).;Ubicado dentro del recinto del Hospital San Rafael.;3;http://www.madrid.es/sites/v/index.jsp?vgnextchannel=bfa48ab43d6bb410VgnVCM100000171f5a0aRCRD&vgnextoid=619f94c21b45e310VgnVCM1000000b205a0aRCRD;SERRANO;CALLE;V;199;;;;;MADRID;MADRID;28016;4;HISPANOAMERICA;5;CHAMARTIN;442213;4478144;4.045.195.424.833.410;-36.814.870.493.492.200;900 321 322;;informa@nebrija.es;/contenido/entidadesYorganismos/Universidades; ;
11652695;Universidad Antonio de Nebrija. Edificio Joaquín María López;;;;Metro: Islas Filipinas (línea 7).  Bus: 1, 132, 138, 44, 62, 82, C1, C2, 12  Bicimad: Estación 128 (calle Cea Bermúdez, 59).;Ciclos formativos de Grado Superior.;3;http://www.madrid.es/sites/v/index.jsp?vgnextchannel=bfa48ab43d6bb410VgnVCM100000171f5a0aRCRD&vgnextoid=c05125d502eff710VgnVCM1000001d4a900aRCRD;JOAQUIN MARIA LOPEZ;CALLE;V;62;;;;;MADRID;MADRID;28015;1;GAZTAMBIDE;7;CHAMBERI;439259;4476605;4.043.787.436.557.180;-3.716.177.496.227.910;900 321 322 / 914 521 152;;informa@nebrija.es;/contenido/entidadesYorganismos/Universidades; ;
32179;Universidad Autónoma de Madrid. Escuela Politécnica Superior;;;Estudios de grado:   Grado en Ingeniería Biomédica.  Grado en Ingeniería Informática.  Grado en Ingeniería de Tecnologías y Servicios de Telecomunicación.  Doble Grado en Ingeniería Informática y Matemáticas.   Másteres y postgrados.;;;3;http://www.madrid.es/sites/v/index.jsp?vgnextchannel=bfa48ab43d6bb410VgnVCM100000171f5a0aRCRD&vgnextoid=f6f96545f951c010VgnVCM2000000c205a0aRCRD;FRANCISCO TOMAS Y VALIENTE;CALLE;V;11;;;;;MADRID;MADRID;28049;8;EL GOLOSO;8;FUENCARRAL-EL PARDO;441437;4488694;4.054.692.419.691.820;-3.691.631.796.713.080;914 972 223;;información.eps@uam.es;/contenido/entidadesYorganismos/Universidades/EscuelasUniversitarias; ;
6403;Universidad Autónoma de Madrid. Escuela Universitaria de Enfermería de la Cruz Roja;;;Titulaciones:  Grado en enfermería.;Metro: Guzmán el Bueno (líneas 6 y 7), Cuatro Caminos (líneas 1, 2 y 6).  Bus:   44,   45, C2, F, 127, C1.;;3;http://www.madrid.es/sites/v/index.jsp?vgnextchannel=bfa48ab43d6bb410VgnVCM100000171f5a0aRCRD&vgnextoid=4cfec05ef571c010VgnVCM1000000b205a0aRCRD;REINA VICTORIA;AVENIDA;V;28;;;;;MADRID;MADRID;28003;3;CIUDAD UNIVERSITARIA;9;MONCLOA-ARAVACA;439817;4477640;4.044.723.898.268.860;-37.097.123.606.246.700;915 343 649;;inforeue@cruzroja.es;/contenido/entidadesYorganismos/Universidades/EscuelasUniversitarias; ;
6374;Universidad Autónoma de Madrid. Escuela Universitaria de Fisioterapia de la ONCE;;;Titulaciones:   Grado en Fisioterapia. Postgrado.;Bus: 133, 134.;;3;http://www.madrid.es/sites/v/index.jsp?vgnextchannel=bfa48ab43d6bb410VgnVCM100000171f5a0aRCRD&vgnextoid=af96c05ef571c010VgnVCM1000000b205a0aRCRD;NURIA;CALLE;V;42;;;;;MADRID;MADRID;28034;7;MIRASIERRA;8;FUENCARRAL-EL PARDO;440004;4482813;40.493.852.846.462.300;-37.079.965.907.927.400;915 894 500;915 894 498;euf@once.es;/contenido/entidadesYorganismos/Universidades/EscuelasUniversitarias; ;
6352;Universidad Autónoma de Madrid. Facultad de Ciencias;;;Estudios de grado:  Biología. Bioquímica. Ciencia y Tecnología de los Alimentos. Ciencia, Tecnología y Humanidades. Ciencias. Ciencias Ambientales. Ciencias Ambientales y Geografía y Ordenación del Territorio. Física. Ingeniería Biomédica. Ingeniería Informática y Matemáticas. Ingeniería Química. Matemáticas. Nutrición Humana y Dietética. Nutrición Humana y Dietética y Ciencia y Tecnología de los Alimentos. Química.   Másteres y postgrados.;Cercanías Renfe: Cantoblanco Universidad (línea C4).;;3;http://www.madrid.es/sites/v/index.jsp?vgnextchannel=bfa48ab43d6bb410VgnVCM100000171f5a0aRCRD&vgnextoid=3c47c05ef571c010VgnVCM1000000b205a0aRCRD;FRANCISCO TOMAS Y VALIENTE;CALLE;V;7;;;;Campus de Cantoblanco;MADRID;MADRID;28049;8;EL GOLOSO;8;FUENCARRAL-EL PARDO;441133;4488524;405.453.713.128.424;-3.695.194.095.239.850;914 974 331 (Información y Conserjería);;;/contenido/entidadesYorganismos/Universidades/Facultades; ;
6353;Universidad Autónoma de Madrid. Facultad de Ciencias Económicas y Empresariales;;;"Titulaciones de grado:   Grado en Administración y Dirección de Empresas. Grado en Análisis de Datos en la Empresa (biling&amp;uuml;e). Doble Grado en Derecho y Administración y Dirección de Empresas. Grado en Economía. Grado en Economía y Finanzas (biling&amp;uuml;e). Grado en Filosofía, Política y Economía. Grado en Gestión Aeronáutica. Grado en Turismo.   Másteres y postgrados.";Cercanías Renfe: Cantoblanco Universidad (línea C4).;;3;http://www.madrid.es/sites/v/index.jsp?vgnextchannel=bfa48ab43d6bb410VgnVCM100000171f5a0aRCRD&vgnextoid=a937c05ef571c010VgnVCM1000000b205a0aRCRD;FRANCISCO TOMAS Y VALIENTE;CALLE;V;5;;;;;MADRID;MADRID;28049;8;EL GOLOSO;8;FUENCARRAL-EL PARDO;441012;4488468;4.054.486.725.066.380;-36.966.178.198.810.900;914 974 683;;;/contenido/entidadesYorganismos/Universidades/Facultades; ;
6354;Universidad Autónoma de Madrid. Facultad de Derecho;;;Titulaciones de grado  Grado en Derecho Grado en Ciencia Política y Administración Pública. Doble Grado en Derecho y en Administración y Dirección de Empresas. Doble Grado en Derecho y en Ciencia Política y Administración Pública. Grado en Filosofía, Política y Economía. Programas Internacionales de Doble Titulación.   Másteres y postgrados.;;;3;http://www.madrid.es/sites/v/index.jsp?vgnextchannel=bfa48ab43d6bb410VgnVCM100000171f5a0aRCRD&vgnextoid=ce57c05ef571c010VgnVCM1000000b205a0aRCRD;KELSEN;CALLE;V;1;;;;;MADRID;MADRID;28049;8;EL GOLOSO;8;FUENCARRAL-EL PARDO;441478;4488101;4.054.159.425.362.620;-36.910.810.023.669.900;914 978 118;;informacion.derecho@uam.es;/contenido/entidadesYorganismos/Universidades/Facultades; ;
6355;Universidad Autónoma de Madrid. Facultad de Filosofía y Letras;;;"Grados y Dobles Grados:  Grado en Antropología Social y Cultural. Grado en Ciencias y Lenguas de la Antig&amp;uuml;edad. Grado en Estudios de Asia y África: Árabe, Chino y Japonés. Grado en Estudios Hispánicos. Grado en Estudios Ingleses. Grado en Estudios Internacionales. Grado en Filosofía. Grado en Geografía y Ordenación del Territorio. Grado en Historia. Grado en Historia del Arte. Grado en Historia y Ciencias de la Música y Tecnología Musical. Grado en Lenguas Modernas, Cultura y Comunicación. Grado en Traducción e Interpretación. Doble Grado en Ciencias Ambientales y Geografía y Ordenación del Territorio. Doble Grado Filosofía - Historia y Ciencias de la Música y Tecnología Musical. Doble Grado en Historia del Arte y Ciencias y Lenguas de la Antig&amp;uuml;edad.   Másteres y postgrados.";Cercanías Renfe: Cantoblanco Universidad (línea C4).;;3;http://www.madrid.es/sites/v/index.jsp?vgnextchannel=bfa48ab43d6bb410VgnVCM100000171f5a0aRCRD&vgnextoid=5177c05ef571c010VgnVCM1000000b205a0aRCRD;FRANCISCO TOMAS Y VALIENTE;CALLE;V;1;;;;;MADRID;MADRID;28049;8;EL GOLOSO;8;FUENCARRAL-EL PARDO;440878;4488407;4.054.431.755.886.160;-3.698.135.523.802.290;914 974 354;;informacion.filosofia@uam.es;/contenido/entidadesYorganismos/Universidades/Facultades; ;
6360;Universidad Autónoma de Madrid. Facultad de Formación de Profesorado y Educación;;;Estudios de grado:    Ciencias de la Actividad Física y del Deporte. Maestro/a en Educación Infantil. Maestro/a en Educación Primaria. Doble Grado en Maestro/a en Educación Infantil y Maestro/a en Educación Primaria.   Másteres y postgrados.;Cercanías Renfe: Cantoblanco Universidad (línea C4).;;3;http://www.madrid.es/sites/v/index.jsp?vgnextchannel=bfa48ab43d6bb410VgnVCM100000171f5a0aRCRD&vgnextoid=e387c05ef571c010VgnVCM1000000b205a0aRCRD;FRANCISCO TOMAS Y VALIENTE;CALLE;V;3;;;;;MADRID;MADRID;28049;8;EL GOLOSO;8;FUENCARRAL-EL PARDO;441013;4488626;40.544.409.068.541.400;-36.979.002.877.437.000;914 974 682 / 914 977 567;;;/contenido/entidadesYorganismos/Universidades/Facultades; ;
6357;Universidad Autónoma de Madrid. Facultad de Medicina;;;Titulaciones de grado:   Grado en Medicina. Grado en Enfermería. Grado en Ingeniería Biomédica. Grado en Nutrición Humana y Dietética. Doble Grado en Nutrición Humana y Dietética y Ciencia y Tecnología de los Alimentos. Grado en Bioquímica.   Másteres y postgrados.;Metro: Begoña (línea 10).  Bus: 132, 67, 124, 135, 137, 175, 178.  Bicimad: Estación 217 (calle Pedro Rico, 4).;;3;http://www.madrid.es/sites/v/index.jsp?vgnextchannel=bfa48ab43d6bb410VgnVCM100000171f5a0aRCRD&vgnextoid=7697c05ef571c010VgnVCM1000000b205a0aRCRD;ARZOBISPO MORCILLO;CALLE;V;4;;;;;MADRID;MADRID;28029;5;LA PAZ;8;FUENCARRAL-EL PARDO;441449;4481418;4.048.138.033.995.380;-369.081.705.203.895;914 975 486;;;/contenido/entidadesYorganismos/Universidades/Facultades; ;
6356;Universidad Autónoma de Madrid. Facultad de Psicología;;;Grado en psicología.  Másteres y postgrados.;Cercanías Renfe: Cantoblanco Universidad (línea C4).;;3;http://www.madrid.es/sites/v/index.jsp?vgnextchannel=bfa48ab43d6bb410VgnVCM100000171f5a0aRCRD&vgnextoid=09a7c05ef571c010VgnVCM1000000b205a0aRCRD;IVAN PAVLOV;CALLE;V;6;;;;;MADRID;MADRID;28049;8;EL GOLOSO;8;FUENCARRAL-EL PARDO;441354;4488365;4.054.396.360.557.410;-3.692.581.508.705.480;914 974 046;;secretariagrado.psicologia@uam.es;/contenido/entidadesYorganismos/Universidades/Facultades; ;
5741367;Universidad Camilo José Cela Campus Almagro. Escuela de Postgrado;;;;Metro Alonso Martínez (líneas 4, 5 y 10).  Bus: 7, 3, 21, C03, 37.  Bicimad: Estación 8 (Plaza Alonso Martínez, 5), estación 122 (calle Santa Engracia, 14).  Aparcamiento: Almagro (12), calle Almagro 11.;;3;http://www.madrid.es/sites/v/index.jsp?vgnextchannel=bfa48ab43d6bb410VgnVCM100000171f5a0aRCRD&vgnextoid=1bb27fe67b289210VgnVCM2000000c205a0aRCRD;ALMAGRO;CALLE;V;5;;;;;MADRID;MADRID;28010;4;ALMAGRO;7;CHAMBERI;441049;4475559;4.042.858.073.711.880;-3.694.980.319.880.980;912 980 123;;info@ucjc.edu;/contenido/entidadesYorganismos/Universidades; ;
6337;Universidad CEU San Pablo. Campus de Moncloa;;;Facultades:   Humanidades y ciencias de la comunicación. Ciencias económicas y empresariales. Derecho.;"Metro:  Islas Filipinas (línea 7); Vicente Aleixandre (línea 6), Guzmán el Bueno (líneas 6 y 7).  Bus: C1, C2.  Bicimad: Estaciones 203 (General Ampudia, 2) y 244 (calle Isaac Peral, 44).";;3;http://www.madrid.es/sites/v/index.jsp?vgnextchannel=bfa48ab43d6bb410VgnVCM100000171f5a0aRCRD&vgnextoid=012f578b9671c010VgnVCM1000000b205a0aRCRD;JULIAN ROMEA;CALLE;V;23;;;;;MADRID;MADRID;28003;6;VALLEHERMOSO;7;CHAMBERI;439160;4477139;404.426.780.240.394;-3.717.399.600.089.620;914 566 300;;secretariamoncloa@ceu.es;/contenido/entidadesYorganismos/Universidades/Facultades; ;
5321256;Universidad Complutense de Madrid. Centro Complutense para la Enseñanza del Español;;;;Metro: Ciudad Universitaria (línea 6).  Bus: 82, F, G, U.  Bicimad: Estación 261 (avenida Complutense, 23).;;3;http://www.madrid.es/sites/v/index.jsp?vgnextchannel=bfa48ab43d6bb410VgnVCM100000171f5a0aRCRD&vgnextoid=a414ad4ae5b01210VgnVCM1000000b205a0aRCRD;MENÉNDEZ PELAYO;PLAZA;V;;;;;;MADRID;MADRID;S/N - 28040;3;CIUDAD UNIVERSITARIA;9;MONCLOA-ARAVACA;438054;4477848;4.044.898.329.648.030;-3.730.509.235.855.080;913 945 325;913 945 336;ceextran@filol.ucm.es;/contenido/entidadesYorganismos/Universidades/OtrosCentrosUniversitarios; ;
5412137;Universidad Complutense de Madrid. Centro Superior de Idiomas Modernos;;;;Bus: F, G.;;3;http://www.madrid.es/sites/v/index.jsp?vgnextchannel=bfa48ab43d6bb410VgnVCM100000171f5a0aRCRD&vgnextoid=0f66c3665e393210VgnVCM2000000c205a0aRCRD;PROFESOR ARANGUREN;CALLE;V;;;;;Edificio Multiusos 2ª planta;MADRID;MADRID;;3;CIUDAD UNIVERSITARIA;9;MONCLOA-ARAVACA;437924;4477649;40.449.963.578.914.900;-3.732.775.678.645.040;913 947 754 / 913 946 358 / 913 947 813;;idiomascomplutense@ucm.es;/contenido/entidadesYorganismos/Universidades/OtrosCentrosUniversitarios; ;
6492;Universidad Complutense de Madrid. Escuela Profesional de Medicina Legal y Forense;;;;Metro: Ciudad Universitaria (línea 6).  Bus: 132, 82, G, U.  Bicimad: Estaciones 258 y 259 (metro Ciudad Universitaria).;;3;http://www.madrid.es/sites/v/index.jsp?vgnextchannel=bfa48ab43d6bb410VgnVCM100000171f5a0aRCRD&vgnextoid=afa07b503a71c010VgnVCM1000000b205a0aRCRD;COMPLUTENSE;AVENIDA;V;;;;;;MADRID;MADRID;S/N - 28040;3;CIUDAD UNIVERSITARIA;9;MONCLOA-ARAVACA;438315;4477254;40.444.209.689.370.500;-3.724.525.000.209.290;913 941 574;;emedicin@ucm.es;/contenido/entidadesYorganismos/Universidades/OtrosCentrosUniversitarios; ;
6501;Universidad Complutense de Madrid. Escuela Profesional de Relaciones Laborales;;;;Metro: Noviciado (línea 2).  Bus: 147, 3, 002.  Bicimad: Estacionesn 15 (calle San Vicente Ferrer, 64), 16 (calle San Bernardo, 22).  Aparcamiento: Mostenses (50) plaza Mostenses y calle Ricardo León.;;3;http://www.madrid.es/sites/v/index.jsp?vgnextchannel=bfa48ab43d6bb410VgnVCM100000171f5a0aRCRD&vgnextoid=c4d07b503a71c010VgnVCM1000000b205a0aRCRD;SAN BERNARDO;CALLE;V;49;;;;;MADRID;MADRID;28015;5;UNIVERSIDAD;1;CENTRO;439983;4475154;4.042.484.700.930.800;-3.707.520.080.344.630;913 946 625;;;/contenido/entidadesYorganismos/Universidades/OtrosCentrosUniversitarios; ;
6320;Universidad Complutense de Madrid. Facultad de Bellas Artes;;;;Bus: 46, U, 160, 161.;Titulaciones   Bellas Artes. Conservación y Restauración del Patrimonio Cultural. Diseño.  Másteres y postgrados.;3;http://www.madrid.es/sites/v/index.jsp?vgnextchannel=bfa48ab43d6bb410VgnVCM100000171f5a0aRCRD&vgnextoid=b268578b9671c010VgnVCM1000000b205a0aRCRD;PINTOR EL GRECO;CALLE;V;2;;;;;MADRID;MADRID;28040;3;CIUDAD UNIVERSITARIA;9;MONCLOA-ARAVACA;437865;4476982;4.043.928.597.346.610;-37.339.297.313.310.500;913 943 560;;safba@ucm.es;/contenido/entidadesYorganismos/Universidades/Facultades; ;
6306;Universidad Complutense de Madrid. Facultad de Ciencias Biológicas;;;;Metro: Ciudad Universitaria (línea 6).  Bus: 132, F, 82, G, U.  Bicimad: Estación 260 (calle José Antonio Novais frente al número 12).;Titulación:   Grado de Biología.  Másteres y postgrados.;3;http://www.madrid.es/sites/v/index.jsp?vgnextchannel=bfa48ab43d6bb410VgnVCM100000171f5a0aRCRD&vgnextoid=4578578b9671c010VgnVCM1000000b205a0aRCRD;JOSÉ ANTONIO NOVAIS;CALLE;V;12;;;;;MADRID;MADRID;28040;3;CIUDAD UNIVERSITARIA;9;MONCLOA-ARAVACA;438393;4477794;4.044.851.295.451.710;-37.265.182.799.879.300;;;;/contenido/entidadesYorganismos/Universidades/Facultades; ;
6385;Universidad Complutense de Madrid. Facultad de Ciencias de la Documentación;;;;Metro: Alonso Cano (línea 7), Canal (líneas 2 y 7).  Bus: 149, 12, 3, 37.  Bicimad: Estación 201 (calle José Abascal, 2).;Titulaciones:   Información y Documentación. Musicología.  Másteres y postgrados.;3;http://www.madrid.es/sites/v/index.jsp?vgnextchannel=bfa48ab43d6bb410VgnVCM100000171f5a0aRCRD&vgnextoid=e508578b9671c010VgnVCM1000000b205a0aRCRD;SANTÍSIMA TRINIDAD;CALLE;V;37;;;;;MADRID;MADRID;28010;3;TRAFALGAR;7;CHAMBERI;440497;4476628;404.381.713.973.253;-37.015.993.259.151.000;913 946 662 / 913 946 671;;infccdoc@ucm.es;/contenido/entidadesYorganismos/Universidades/EscuelasUniversitarias; ;
6319;Universidad Complutense de Madrid. Facultad de Ciencias de la Información;;;;Metro: Ciudad Universitaria (línea 6).  Bus: 132, 82, G, U.  Bicimad: Estaciones 258 y 259 (avenida de la Complutense, metro Ciudad Universitaria).;Titulaciones     Comunicación Audiovisual. Periodismo. Publicidad y Relaciones Públicas.  Másteres y postgrados.;3;http://www.madrid.es/sites/v/index.jsp?vgnextchannel=bfa48ab43d6bb410VgnVCM100000171f5a0aRCRD&vgnextoid=d788578b9671c010VgnVCM1000000b205a0aRCRD;COMPLUTENSE;AVENIDA;V;3;;;;;MADRID;MADRID;28040;3;CIUDAD UNIVERSITARIA;9;MONCLOA-ARAVACA;438279;4477476;4.044.565.281.311.890;-37.278.198.653.957.000;913 942 220 / 913 942 055;;;/contenido/entidadesYorganismos/Universidades/Facultades; ;
6307;Universidad Complutense de Madrid. Facultad de Ciencias Físicas;;;;Bus: 82, F, G, U.;Titulaciones:   Física. Ingeniería de Materiales. Ingeniería Electrónica de Comunicaciones. Matemáticas - Física.  Másteres y postgrados.;3;http://www.madrid.es/sites/v/index.jsp?vgnextchannel=bfa48ab43d6bb410VgnVCM100000171f5a0aRCRD&vgnextoid=fca8578b9671c010VgnVCM1000000b205a0aRCRD;CIENCIAS;PLAZA;V;1;;;;;MADRID;MADRID;28040;3;CIUDAD UNIVERSITARIA;9;MONCLOA-ARAVACA;438431;4478061;4.045.093.008.868.160;-37.260.843.872.268.000;913 944 648 / 913 944 627;;infofisicas@ucm.es;/contenido/entidadesYorganismos/Universidades/Facultades; ;
6305;Universidad Complutense de Madrid. Facultad de Ciencias Geológicas;;;;Metro: Ciudad Universitaria (línea 6).  Bus: 132, F, 82, G, U.  Bicimad: Estación 260 (calle José Antonio Novais, 12).;Titulaciones:    Geología. Ingeniería Geológica.  Másteres y postgrados.;3;http://www.madrid.es/sites/v/index.jsp?vgnextchannel=bfa48ab43d6bb410VgnVCM100000171f5a0aRCRD&vgnextoid=8fb8578b9671c010VgnVCM1000000b205a0aRCRD;JOSÉ ANTONIO NOVAIS;CALLE;V;12;;;;;MADRID;MADRID;28040;3;CIUDAD UNIVERSITARIA;9;MONCLOA-ARAVACA;438460;4477802;40.448.599.066.708.400;-3.725.717.316.611.810;913 944 837 / 913 945 109;;infoweb@geo.ucm.es;/contenido/entidadesYorganismos/Universidades/Facultades; ;
6313;Universidad Complutense de Madrid. Facultad de Ciencias Matemáticas;;;;Metro: Ciudad Universitaria (línea 6).  Bus: 132, F, 82, G, U.  Bicimad: Estación 260 (calle José Antonio Novais, 12).;Titulaciones:    Economía - Matemáticas y Estadística. Ingeniería Informática - Matemáticas. Ingeniería Matemática. Matemáticas. Matemáticas - Física. Matemáticas y Estadística.  Másteres y postgrados.;3;http://www.madrid.es/sites/v/index.jsp?vgnextchannel=bfa48ab43d6bb410VgnVCM100000171f5a0aRCRD&vgnextoid=12d8578b9671c010VgnVCM1000000b205a0aRCRD;CIENCIAS;PLAZA;V;3;;;;;MADRID;MADRID;28040;3;CIUDAD UNIVERSITARIA;9;MONCLOA-ARAVACA;438419;4477894;4.044.942.472.705.850;-37.262.214.898.219.100;;;;/contenido/entidadesYorganismos/Universidades/Facultades; ;
6308;Universidad Complutense de Madrid. Facultad de Ciencias Químicas;;;;Bus: 82, F, G, U.    Bicimad: Estación 260 (calle José Antonio Novais frente al número 12).;Titulaciones    Química. Ingeniería Química. Bioquímica. Doble grado en Química y Bioquímica.  Másteres y postgrados.;3;http://www.madrid.es/sites/v/index.jsp?vgnextchannel=bfa48ab43d6bb410VgnVCM100000171f5a0aRCRD&vgnextoid=37f8578b9671c010VgnVCM1000000b205a0aRCRD;CIENCIAS;PLAZA;V;;;;;;MADRID;MADRID;28040;3;CIUDAD UNIVERSITARIA;9;MONCLOA-ARAVACA;438430;4478044;4.045.085.466.244.560;-37.240.604.104.114.300;913 944 347 / 913 945 122 / 913 944 109;;;/contenido/entidadesYorganismos/Universidades/Facultades; ;
44824;Universidad Complutense de Madrid. Facultad de Comercio y Turismo;;;;Metro: Islas Filipinas (línea 7).  Bus: 12, 2.  Bicimad: Estaciones 203 (calle General Ampudia, 2) y 202 (calle Santander esquina Avenida Filipinas), 128 (calle Cea Bermúdez, 59).;Titulaciones:   Comercio. Doble Título Interuniversitario de Grado en Diseño de Moda y de Grado en Comercio, por la Universidad Politécnica de Madrid y la Universidad Ccomplutense de Madrid. Programa Integrado Grado y Máster en Turismo (con la Universidad Sorbona). Turismo. Turismo y Comercio.   Másteres y postgrados.;3;http://www.madrid.es/sites/v/index.jsp?vgnextchannel=bfa48ab43d6bb410VgnVCM100000171f5a0aRCRD&vgnextoid=bd982c798651c010VgnVCM2000000c205a0aRCRD;DE FILIPINAS;AVENIDA;V;3;;;;;MADRID;MADRID;28003;6;VALLEHERMOSO;7;CHAMBERI;439657;4476807;40.439.714.439.065.600;-37.115.079.872.932.800;913 946 767;;;/contenido/entidadesYorganismos/Universidades/EscuelasUniversitarias; ;
6316;Universidad Complutense de Madrid. Facultad de Derecho;;;;Metro: Ciudad Universitaria (línea 6).  Bus: 82, F, G, U.  Bicimad: Estación 261 (avenida Complutense, 23).;;3;http://www.madrid.es/sites/v/index.jsp?vgnextchannel=bfa48ab43d6bb410VgnVCM100000171f5a0aRCRD&vgnextoid=c909578b9671c010VgnVCM1000000b205a0aRCRD;MENENDEZ PELAYO;PLAZA;V;4;;;;;MADRID;MADRID;28040;3;CIUDAD UNIVERSITARIA;9;MONCLOA-ARAVACA;438033;4477994;4.045.029.942.937.780;-37.307.676.043.691.100;913 945 428;;;/contenido/entidadesYorganismos/Universidades/Facultades; ;
6340;Universidad Complutense de Madrid. Facultad de Educación - Centro de Formación del Profesorado;;;;Metro: Vicente Aleixandre (línea 6).  Bus: 132, F, C2.;"Titulaciones:   Declaración Eclesiástica de Competencia Académica (DECA). Educación Social. Maestro en Educación Infantil. Maestro en Educación Infantil y Maestro en Educación Primaria. Maestro en Educación Infantil y Pedagogía. Maestro en Educación Primaria (ofrece un grupo biling&amp;uuml;e español - inglés). Maestro en Educación Primaria y Pedagogía. Musicología. Pedagogía.  Másteres y postgrados.";3;http://www.madrid.es/sites/v/index.jsp?vgnextchannel=bfa48ab43d6bb410VgnVCM100000171f5a0aRCRD&vgnextoid=5c19578b9671c010VgnVCM1000000b205a0aRCRD;RECTOR ROYO-VILLANOVA;CALLE;V;;;;;EDIFICIO LA ALMUDENA;MADRID;MADRID;28040;3;CIUDAD UNIVERSITARIA;9;MONCLOA-ARAVACA;439308;4478186;40.450.749.254.097.200;-37.174.574.798.217.600;913 946 132 / 913 946 136 / 913 946 311 / 913 946 209 / 913 946 119;;secre.alumnos@edu.ucm.es;/contenido/entidadesYorganismos/Universidades/Facultades; ;
6366;Universidad Complutense de Madrid. Facultad de Enfermería, Fisioterapia y Podología;;;;Metro: Ciudad Universitaria (línea 6).  Bus: 132, 82, G, U.  Bicimad: Estaciones 258 y 259 (metro Ciudad Universitaria).;Titulaciones:    Enfermería.  Fisioterapia.  Podología.  Másteres y postgrados.;3;http://www.madrid.es/sites/v/index.jsp?vgnextchannel=bfa48ab43d6bb410VgnVCM100000171f5a0aRCRD&vgnextoid=7818578b9671c010VgnVCM1000000b205a0aRCRD;RAMON Y CAJAL;PLAZA;V;3;;;;;MADRID;MADRID;28040;3;CIUDAD UNIVERSITARIA;9;MONCLOA-ARAVACA;438493;4477279;4.044.388.989.111.180;-3.725.275.188.293.440;913 941 536 / 913 941 530 / 913 941 648;;secre.alumnos@enf.ucm.es;/contenido/entidadesYorganismos/Universidades/EscuelasUniversitarias; ;
6365;Universidad Complutense de Madrid. Facultad de Estudios Estadísticos;;;;Bus: 133, 162, 83, F, G.;Titulaciones:   Grado en Estadística Aplicada.  Másteres y postgrados.;3;http://www.madrid.es/sites/v/index.jsp?vgnextchannel=bfa48ab43d6bb410VgnVCM100000171f5a0aRCRD&vgnextoid=0b28578b9671c010VgnVCM1000000b205a0aRCRD;PUERTA DE HIERRO;AVENIDA;S/N;;;;;;MADRID;MADRID;28040;3;CIUDAD UNIVERSITARIA;9;MONCLOA-ARAVACA;437965;4477255;4.044.710.921.445.560;-3.736.030.211.293.140;913 944 004 / 913 944 064;;pgweb@estad.ucm.es;/contenido/entidadesYorganismos/Universidades/Facultades; ;
6303;Universidad Complutense de Madrid. Facultad de Farmacia;;;;Metro: Ciudad Universitaria (línea 6).  Bus: 132, 82, G, U.  Bicimad: Estaciones 258 y 259 (metro Ciudad Universitaria).;Titulaciones:   Bioquímica. Ciencia y Tecnología de los alimentos. Farmacia. Farmacia y Nutrición Humana y Dietética. Nutrición Humana y Dietética.  Másteres y postgrados.;3;http://www.madrid.es/sites/v/index.jsp?vgnextchannel=bfa48ab43d6bb410VgnVCM100000171f5a0aRCRD&vgnextoid=ee29578b9671c010VgnVCM1000000b205a0aRCRD;RAMÓN Y CAJAL;PLAZA;V;;;;;;MADRID;MADRID;28040;3;CIUDAD UNIVERSITARIA;9;MONCLOA-ARAVACA;438415;4477352;40.445.377.687.821.400;-3.726.162.822.313.480;913 947 219 / 913 941 705;;;/contenido/entidadesYorganismos/Universidades/Facultades; ;
6312;Universidad Complutense de Madrid. Facultad de Filología;;;;Metro: Ciudad Universitaria (línea 6).  Bus: 82, F, G, U.  Bicimad: Estaciones 261 (avenida Complutense, 23) y 260 (calle José Antonio Novais, 12).;;3;http://www.madrid.es/sites/v/index.jsp?vgnextchannel=bfa48ab43d6bb410VgnVCM100000171f5a0aRCRD&vgnextoid=7149578b9671c010VgnVCM1000000b205a0aRCRD;MENÉNDEZ PELAYO;PLAZA;V;;;;;;MADRID;MADRID;28040;3;CIUDAD UNIVERSITARIA;9;MONCLOA-ARAVACA;438051;4477841;4.044.902.725.572.580;-37.299.122.889.709.400;913 945 343;;;/contenido/entidadesYorganismos/Universidades/Facultades; ;
6310;Universidad Complutense de Madrid. Facultad de Filosofía;;;;Metro: Ciudad Universitaria (línea 6).  Bus: 82, F, G, U.  Bicimad: Estaciones 261 (avenida Complutense, 23) y 260 (calle José Antonio Novais, 12).;Titulaciones:   Arqueología. Asignaturas para la Docencia en Centros Privados y Concertados - Filosofía. Ciencias de las Religiones. Ciencias Políticas - Filosofía. Derecho y Filosofía Plan 2020. Derecho y Filosofía. (Plan a extinguir). Doble Titulación Grado en Filosofía UCM y Licenciado en Filosofía (UNAM). Filosofía. Historia. Historia del Arte. Musicología.   Másteres y postgrados.;3;http://www.madrid.es/sites/v/index.jsp?vgnextchannel=bfa48ab43d6bb410VgnVCM100000171f5a0aRCRD&vgnextoid=0459578b9671c010VgnVCM1000000b205a0aRCRD;MENÉNDEZ PELAYO;PLAZA;T;;;;;;MADRID;MADRID;;;;;DISTRITO;437551;4477884;4.044.898.643.338.130;-37.304.165.442.551.700;;;;/contenido/entidadesYorganismos/Universidades/Facultades; ;
6309;Universidad Complutense de Madrid. Facultad de Geografía e Historia;;;;Bus: F, G, 133, 162, 83.;Titulaciones:   Arqueología. Asignaturas para la Docencia en Centros Privados y Concertados - Geografía e Historia. Ciencias de las Religiones. Geografía y Ordenación del Territorio. Historia. Historia - Filología Clásica. Historia del Arte. Musicología.   Másteres y postgrados.;3;http://www.madrid.es/sites/v/index.jsp?vgnextchannel=bfa48ab43d6bb410VgnVCM100000171f5a0aRCRD&vgnextoid=9669578b9671c010VgnVCM1000000b205a0aRCRD;PROFESOR ARANGUREN;CALLE;S/N;;;;;CIUDAD UNIVERSITARIA;MADRID;MADRID;28040;3;CIUDAD UNIVERSITARIA;9;MONCLOA-ARAVACA;437782;4477907;4.044.950.567.301.680;-37.338.667.546.817.200;913 945 741 / 913 945 743;913 946 023;;/contenido/entidadesYorganismos/Universidades/Facultades; ;
54821;Universidad Complutense de Madrid. Facultad de Informática;;;;Bus: U.;Titulaciones:    Administración y Dirección de Empresas - Ingeniería Informática Plan 2019. Administración y Dirección de Empresas - Ingeniería Informática. (Plan a extinguir). Desarrollo de Videojuegos Plan 2019. Desarrollo de Videojuegos. (Plan a extinguir). Ingeniería de Computadores Plan 2019. Ingeniería de Computadores. (Plan a extinguir). Ingeniería del Software Plan 2019. Ingeniería del Software. (Plan a extinguir). Ingeniería Informática - Matemáticas Plan 2019. Ingeniería Informática - Matemáticas. (Plan a extinguir). Ingeniería Informática (ofrece un grupo en inglés) Plan 2019. Ingeniería Informática (ofrece un grupo en inglés). (Plan a extinguir).   Másteres y postgrados.;3;http://www.madrid.es/sites/v/index.jsp?vgnextchannel=bfa48ab43d6bb410VgnVCM100000171f5a0aRCRD&vgnextoid=b5da6545f951c010VgnVCM2000000c205a0aRCRD;PROFESOR JOSÉ GARCÍA SANTESMASES;CALLE;V;9;;;;;MADRID;MADRID;28040;3;CIUDAD UNIVERSITARIA;9;MONCLOA-ARAVACA;437779;4478289;4.045.293.544.436.470;-37.337.951.823.310.400;913 947 502 / 913 947 510;;webmaster@fdi.ucm.es;/contenido/entidadesYorganismos/Universidades/Facultades; ;
6304;Universidad Complutense de Madrid. Facultad de Medicina;;;;Metro: Ciudad Universitaria (línea 6).  Bus: 132, 82, G, U.  Bicimad: Estaciones 258 y 259 (metro Ciudad Universitaria).;Titulaciones:    Medicina. Nutrición Humana y Dietética. Terapia Ocupacional.  Másteres y postgrados.;3;http://www.madrid.es/sites/v/index.jsp?vgnextchannel=bfa48ab43d6bb410VgnVCM100000171f5a0aRCRD&vgnextoid=2979578b9671c010VgnVCM1000000b205a0aRCRD;RAMÓN Y CAJAL;PLAZA;V;;;;;;MADRID;MADRID;S/N - 28040;3;CIUDAD UNIVERSITARIA;9;MONCLOA-ARAVACA;438415;4477352;4.044.405.495.942.560;-3.724.220.903.045.640;913 941 307 / 913 941 301;913 941 235;decmed@ucm.es;/contenido/entidadesYorganismos/Universidades/Facultades; ;
6315;Universidad Complutense de Madrid. Facultad de Odontología;;;;Metro: Ciudad Universitaria (línea 6).  Bus: 132, 82, G, U.  Bicimad: Estaciones 258 y 259 (metro Ciudad Universitaria).;Titulación:   Odontología.  Másteres y postgrados.;3;http://www.madrid.es/sites/v/index.jsp?vgnextchannel=bfa48ab43d6bb410VgnVCM100000171f5a0aRCRD&vgnextoid=bb89578b9671c010VgnVCM1000000b205a0aRCRD;RAMÓN Y CAJAL;PLAZA;V;3;;;;;MADRID;MADRID;28040;3;CIUDAD UNIVERSITARIA;9;MONCLOA-ARAVACA;438470;4477304;4.044.255.256.967.300;-3.725.765.855.405.820;913 941 920 / 913 941 910;;infodon@pas.ucm.es;/contenido/entidadesYorganismos/Universidades/Facultades; ;
6364;Universidad Complutense de Madrid. Facultad de Óptica y Optometría;;;;Metro: San Blas (línea 7), Avenida de Guadalajara (línea 2).  Bus: 153, 4.;Titulación:   Grado en Óptica y Optometría  Másteres y postgrados.;3;http://www.madrid.es/sites/v/index.jsp?vgnextchannel=bfa48ab43d6bb410VgnVCM100000171f5a0aRCRD&vgnextoid=9d38578b9671c010VgnVCM1000000b205a0aRCRD;ARCOS DE JALÓN;CALLE;V;118;;;;;MADRID;MADRID;28037;4;ARCOS;20;SAN BLAS-CANILLEJAS;447911;4475213;4.042.592.167.588.890;-3.614.071.525.708.840;913 946 876;913 946 885;infopt@ucm.es;/contenido/entidadesYorganismos/Universidades/Facultades; ;
6314;Universidad Complutense de Madrid. Facultad de Veterinaria;;;;Bus: 133, 162, 83.;Titulaciones:    Veterinaria. Ciencia y Tecnología de los Alimentos.  Másteres y postgrados.;3;http://www.madrid.es/sites/v/index.jsp?vgnextchannel=bfa48ab43d6bb410VgnVCM100000171f5a0aRCRD&vgnextoid=d0b9578b9671c010VgnVCM1000000b205a0aRCRD;PUERTA DE HIERRO;AVENIDA;V;0;;;;;MADRID;MADRID;28040;3;CIUDAD UNIVERSITARIA;9;MONCLOA-ARAVACA;437639;4477680;4.044.959.367.195.720;-37.383.172.430.653.900;913 943 876 / 913 943 882;;gervet@ucm.es;/contenido/entidadesYorganismos/Universidades/Facultades; ;
135620;Universidad Complutense. Hospital Clínico Veterinario;;;;Bus: 83, 133, 162.;;3;http://www.madrid.es/sites/v/index.jsp?vgnextchannel=bfa48ab43d6bb410VgnVCM100000171f5a0aRCRD&vgnextoid=802a5f463b81c010VgnVCM1000000b205a0aRCRD;PUERTA DE HIERRO;AVENIDA;V;;;;;FACULTAD DE VETERINARIA;MADRID;MADRID;SN - 28040;3;CIUDAD UNIVERSITARIA;9;MONCLOA-ARAVACA;437749;4477887;4.045.021.458.286.800;-37.400.222.312.945.400;;;;/contenido/entidadesYorganismos/ClinicasCentrosVeterinarios; ;
178101;Universidad Nacional de Educación a Distancia (UNED). Centro Asociado Madrid - Escuelas Pías;;;Títulos de grado:   Grado en Derecho. Grado en Trabajo Social. Grado en Ciencias Jurídicas de las Administraciones Públicas.  Idiomas CUID. Inglés, francés y japonés. UNED Senior. Cursode acceso a la universidad.;"Metro: Lavapiés (línea 3); Embajadores (líneas 3 y 5).  Bus: M1.  Cercanías Renfe: Embajadores (línea C5).  Bicimad: Estación 53 (calle Valencia, 1).  Aparcamientos: Agustín Lara (73) plaza Arturo Barea; Garaje Amaparo (75) calle Amparo.";;3;http://www.madrid.es/sites/v/index.jsp?vgnextchannel=bfa48ab43d6bb410VgnVCM100000171f5a0aRCRD&vgnextoid=2fed224e0d61c010VgnVCM1000000b205a0aRCRD;TRIBULETE;CALLE;V;14;;;;;MADRID;MADRID;28012;2;EMBAJADORES;1;CENTRO;440385;4473256;4.040.778.683.673.910;-370.260.366.801.384;914 675 871 / 914 675 522;;info.escuelaspias@madrid.uned.es;/contenido/entidadesYorganismos/Universidades/Facultades; ;
45202;Universidad Nacional de Educación a Distancia (UNED). Centro Asociado Madrid - Gregorio Marañón;;;Titulaciones:  Grado en Geografía e Historia. Grado en Historia del Arte. Grado en Estudios Ingleses. Grado en Lengua y Literaturas Españolas. Grado en Filosofía. Grado en Antropología Social y Cultural.  Curso de acceso a la universidad. Idiomas CUID. Inglés, francés, alemán, árabe, italiano, portugués. UNED Senior.;Metro: Lavapiés (línea 3).  Bus: M1.  Cercanías Renfe: Embajadores (líneas 3 y 5).  Bicimad: Estación 53 (calle Valencia, 1).  Aparcamiento: Garaje Amparo (75), calle Amparo.;;3;http://www.madrid.es/sites/v/index.jsp?vgnextchannel=bfa48ab43d6bb410VgnVCM100000171f5a0aRCRD&vgnextoid=67792c798651c010VgnVCM2000000c205a0aRCRD;ARGUMOSA;CALLE;V;3;;;;;MADRID;MADRID;28012;2;EMBAJADORES;1;CENTRO;440590;4473327;4.040.844.116.636.760;-370.018.265.811.484;915 270 665 / 915 399 747;;info.gmaranon@madrid.uned.es;/contenido/entidadesYorganismos/Universidades/Facultades; ;
53998;Universidad Nacional de Educación a Distancia (UNED). Centro Asociado Madrid - Jacinto Verdaguer;;;Estudios:  Grado en Ciencia Política y de la Administración. Grado en Criminología. Grado en Educación Social. Grado en Pedagogía. Grado en Psicología. Grado en Sociología. Idiomas CUID. Inglés. Curso de acceso a la Universidad. UNED Senior.;Metro: Aviación Española (línea 10).  Bus: 17, 39.  Cercanías Renfe: Las Águilas (línea C5).;;3;http://www.madrid.es/sites/v/index.jsp?vgnextchannel=bfa48ab43d6bb410VgnVCM100000171f5a0aRCRD&vgnextoid=f9892c798651c010VgnVCM2000000c205a0aRCRD;FUENTE DE LIMA;CALLE;V;22;;;;;MADRID;MADRID;28024;7;LAS AGUILAS;10;LATINA;433584;4470532;4.038.272.436.710.470;-3.782.454.044.817.050;917 106 155;;info.jverdaguer@madrid.uned.es;/contenido/entidadesYorganismos/Universidades/Facultades; ;
6177184;Universidad Nacional de Educación a Distancia (UNED). Centro Asociado Madrid - Las Tablas;;;Estudios:   Grado en Física. Grado en Química. Grado en Matemáticas. Grado en Ciencias Ambientales. Grado en Ingeniería Eléctrica. Grado en Ingeniería Electrónica Industrial y Automática. Grado en Ingeniería Mecánica. Grado en Ingeniería en Tecnologías Industriales. Grado en Ingeniería Informática. Grado en Ingeniería en Tecnologías de la Información. Grado en Administración y Dirección de Empresas. Grado en Economía. Grado en Turismo. Curso de Acceso. Idiomas CUID. Inglés. UNED Senior.;Metro: Las Tablas (línea 10), Palas de Rey (línea ML1).  Bus: T61, 175, 176.;;3;http://www.madrid.es/sites/v/index.jsp?vgnextchannel=bfa48ab43d6bb410VgnVCM100000171f5a0aRCRD&vgnextoid=a8e4a30c0c582310VgnVCM1000000b205a0aRCRD;SANTO DOMINGO DE LA CALZADA;AVENIDA;V;9;;;;;MADRID;MADRID;28050;6;VALVERDE;8;FUENCARRAL-EL PARDO;443582;4484002;405.048.148.552.007;-36.658.711.721.100.400;913 074 730 / 913 074 733;;info.lastablas@madrid.uned.es;/contenido/entidadesYorganismos/Universidades/Facultades; ;
7599405;Universidad Nacional de Educación a Distancia (UNED). Centro Universitario de Idiomas a Distancia (CUID);Secretaría del CUID.;;;Metro: Palas de Rey (línea ML1), Las Tablas (línea 10).  Bus: T61, 175, 176.;;3;http://www.madrid.es/sites/v/index.jsp?vgnextchannel=bfa48ab43d6bb410VgnVCM100000171f5a0aRCRD&vgnextoid=67161ebc40c87410VgnVCM1000000b205a0aRCRD;SANTO DOMINGO DE LA CALZADA;AVENIDA;V;9;segunda;;;;MADRID;MADRID;28050;6;VALVERDE;8;FUENCARRAL-EL PARDO;443582;4484002;40.504.821.065.488;-36.658.596.724.706.100;914 203 912;;info.cuid@madrid.uned.es;/contenido/entidadesYorganismos/Universidades/Facultades; ;
6424;Universidad Politécnica de Madrid. Escuela Técnica Superior de Arquitectura;;;;Metro: Ciudad Universitaria (línea 6), Moncloa (líneas 6 y 3)  Bus: 46, 160, 161, U;Estudios de Grado    Grado en Fundamentos de la Arquitectura Grado en Diseño de Interiores   Titulaciones de postgrado;3;http://www.madrid.es/sites/v/index.jsp?vgnextchannel=bfa48ab43d6bb410VgnVCM100000171f5a0aRCRD&vgnextoid=e9ac578b9671c010VgnVCM1000000b205a0aRCRD;JUAN DE HERRERA;AVENIDA;V;4;;;;;MADRID;MADRID;28040;3;CIUDAD UNIVERSITARIA;9;MONCLOA-ARAVACA;437947;4476747;4.043.905.709.683.510;-37.316.634.010.765.300;913 366 501 / 913 366 507;;;/contenido/entidadesYorganismos/Universidades/EscuelasUniversitarias; ;
6381;Universidad Politécnica de Madrid. Escuela Técnica Superior de Edificación;;;;Metro: Ciudad Universitaria (línea 6), Moncloa (líneas 6 y 3)  Bus: 46, 161, U, G, 133;Estudios de Grado   Doble grado en Edificación y Administración y Dirección de Empresas Grado en Edificación Grado Inmobiliario   Titulaciones de postgrado;3;http://www.madrid.es/sites/v/index.jsp?vgnextchannel=bfa48ab43d6bb410VgnVCM100000171f5a0aRCRD&vgnextoid=f05d578b9671c010VgnVCM1000000b205a0aRCRD;JUAN DE HERRERA;AVENIDA;V;6;;;;;MADRID;MADRID;28040;3;CIUDAD UNIVERSITARIA;9;MONCLOA-ARAVACA;437921;4476715;4.043.875.780.503.790;-3.731.978.507.643.710;910 675 234;;comunicacion.edificacion@upm.es;/contenido/entidadesYorganismos/Universidades/EscuelasUniversitarias; ;
6418;Universidad Politécnica de Madrid. Escuela Técnica Superior de Ingeniería Aeronáutica y del Espacio;;;;Metro: Ciudad Universitaria (línea 6), Moncloa (línea 3)  Bus: 46, 82, 83, 132, 133, 160, 161, 162, 865, G, U;Estudios de Grado   Grado en Ingeniería Aeroespacial Grado en Gestión y Operaciones del Transporte Aéreo    Titulaciones de postgrado;3;http://www.madrid.es/sites/v/index.jsp?vgnextchannel=bfa48ab43d6bb410VgnVCM100000171f5a0aRCRD&vgnextoid=7cbc578b9671c010VgnVCM1000000b205a0aRCRD;CARDENAL CISNEROS;PLAZA;V;3;;;;;MADRID;MADRID;28040;3;CIUDAD UNIVERSITARIA;9;MONCLOA-ARAVACA;438543;4476956;404.409.841.121.871;-3.724.656.751.216.630;910 675 534 / 910 675 572;;info.aeroespacial@upm.es;/contenido/entidadesYorganismos/Universidades/EscuelasUniversitarias; ;
6419;Universidad Politécnica de Madrid. Escuela Técnica Superior de Ingeniería Agronómica, Alimentaria y de Biosistemas;;;;Metro: Ciudad Universitaria (línea 6)  Bus: 82, 83, 132, 133, 162, G, I, U, 601, 621, 622, 623, 624, 625, 627, 628, 629, 641, 651, 651A, 652, 653, 654, 656, 656A, 657, 658;Estudios de Grado   Grado en Ingeniería Alimentaria Grado en Ingeniería Agroambiental Grado en Biotecnología Grado en Ciencias Agrarias y Bioeconomía Grado en Ingeniería Agrícola   Titulaciones de postgrado;3;http://www.madrid.es/sites/v/index.jsp?vgnextchannel=bfa48ab43d6bb410VgnVCM100000171f5a0aRCRD&vgnextoid=0fcc578b9671c010VgnVCM1000000b205a0aRCRD;PUERTA DE HIERRO;AVENIDA;V;2;;;;-4;MADRID;MADRID;28040;3;CIUDAD UNIVERSITARIA;9;MONCLOA-ARAVACA;438252;4476949;40.440.899.945.359.300;-3.728.076.234.171.520;910 670 742 (Agrónomos) / 910 670 743 (Agrícolas);;comunicacion.etsiaab@upm.es;/contenido/entidadesYorganismos/Universidades/EscuelasUniversitarias; ;
6376;Universidad Politécnica de Madrid. Escuela Técnica Superior de Ingeniería Civil;;;;Metro: Atocha Renfe (línea 1)  Bus: 10, 14, 19, 24, 26, 32, 37, 54, 57, 59, 68, 69, 85, 86, 102, 140, 141  Renfe: Atocha  Bicimad: Estación 69 (Avenida Alfonso XII, 54);Titulaciones de grado   Grado en Ingeniería Civil   Titulaciones de postgrado;3;http://www.madrid.es/sites/v/index.jsp?vgnextchannel=bfa48ab43d6bb410VgnVCM100000171f5a0aRCRD&vgnextoid=3b9d578b9671c010VgnVCM1000000b205a0aRCRD;ALFONSO XII;CALLE;V;3;;;;y 5;MADRID;MADRID;28014;5;LOS JERONIMOS;3;RETIRO;441586;4473438;4.040.950.251.823.440;-3.688.466.890.966.940;910 674 534;;comunicacion.ingenieriacivil@upm.es;/contenido/entidadesYorganismos/Universidades/EscuelasUniversitarias; ;
6422;Universidad Politécnica de Madrid. Escuela Técnica Superior de Ingeniería de Montes, Forestal y del Medio Natural;;;;Metro: Vicente Aleixandre (Metropolitano) (línea 6), Ciudad Universitaria (línea 6)  Bus: 82, 132, F, G;Estudios de Grado   Grado en Ingeniería Forestal Grado en Ingeniería de Tecnologías Ambientales Grado en Ingeniería del Medio Natural   Titulaciones de postgrado;3;http://www.madrid.es/sites/v/index.jsp?vgnextchannel=bfa48ab43d6bb410VgnVCM100000171f5a0aRCRD&vgnextoid=b60d578b9671c010VgnVCM1000000b205a0aRCRD;JOSE ANTONIO NOVAIS;CALLE;V;10;;;;;MADRID;MADRID;28040;3;CIUDAD UNIVERSITARIA;9;MONCLOA-ARAVACA;438562;4477788;40.448.485.414.321.800;-3.724.507.841.206.360;Montes: 910 671 510 / Forestales: 910 671 509;;comunicacion.montes@upm.es;/contenido/entidadesYorganismos/Universidades/EscuelasUniversitarias; ;
6379;Universidad Politécnica de Madrid. Escuela Técnica Superior de Ingeniería de Sistemas Informáticos;;;;Metro: Sierra de Guadalupe (línea 1)  Bus: 54, 58, 63, 103, 142, 143, 54  Renfe: Vallecas;Estudios de grado    Grado en Ciencia de Datos e Inteligencia Artificial Grado en Ingeniería de Computadores Grado en Ingeniería del Software Grado en Sistemas de Información Grado en Tecnologías para la Sociedad de la Información Doble Grado en Ingeniería de Computadores y en Tecnologías para la Sociedad de la Información Doble Grado en Ingeniería del Software y en Tecnologías para la Sociedad de la Información   Titulaciones de postgrado;3;http://www.madrid.es/sites/v/index.jsp?vgnextchannel=bfa48ab43d6bb410VgnVCM100000171f5a0aRCRD&vgnextoid=836d578b9671c010VgnVCM1000000b205a0aRCRD;ALANG TURING;AUTOVIA;T;0;;;;;MADRID;MADRID;28030;5;FONTARRON;14;MORATALAZ;444288;4473008;4.040.582.313.350.450;-36.565.743.766.748.800;910 673 534 / 910 673 524;;negociado.alumnos.etsisi@upm.es;/contenido/entidadesYorganismos/Universidades/EscuelasUniversitarias; ;
6387;Universidad Politécnica de Madrid. Escuela Técnica Superior de Ingeniería y Diseño Industrial;;;;Metro: Embajadores (línea 3, 5)  Bus: 27, 34, 36, 41, 60, 116, 118, 119, 148, C1, C2, E1, M1  Renfe: Embajadores  (C5)  Bicimad: Estación 48 (Glorieta Embajadores, 2), estación 49 (Ronda de Atocha, 34);Estudios de grado   Grado en Ingeniería Eléctrica Grado en Ingeniería Electrónica Industrial y Automática Grado en Ingeniería Mecánica Grado en Ingeniería Química Grado en Ingeniería en Diseño Industrial y Desarrollo de Producto Doble Grado en Ingeniería en Diseño Industrial y en Ingeniería Mecánica Doble Grado en Ingeniería Eléctrica y en Ingeniería Electrónica   Titulaciones de postgrado;3;http://www.madrid.es/sites/v/index.jsp?vgnextchannel=bfa48ab43d6bb410VgnVCM100000171f5a0aRCRD&vgnextoid=e2dd578b9671c010VgnVCM1000000b205a0aRCRD;VALENCIA;RONDA;V;3;;;;;MADRID;MADRID;28012;6;PALOS DE MOGUER;2;ARGANZUELA;440552;4472992;4.040.541.152.859.580;-37.006.108.767.868.300;910 677 400;;secretaria.etsidi@upm.es;/contenido/entidadesYorganismos/Universidades/EscuelasUniversitarias; ;
6417;Universidad Politécnica de Madrid. Escuela Técnica Superior de Ingeniería y Sistemas de Telecomunicación;;;;Metro: Sierra de Guadalupe (línea 1)  Bus: E, 63, 145, 54, 58, 130, 103, 142, 143, T31, 312, 312A, 313, 331, 332, 333, 334, 336, 337, 339, 341  Renfe: Vallecas (C1, C2, C7A);Estudios de grado   Grado en Ingeniería Electrónica de Comunicaciones Grado en Ingeniería de Sistemas de Telecomunicación Grado en Ingeniería de Sonido e Imagen Grado en Ingeniería Telemática Grado en Ingeniería y Sistemas de Datos Doble Grado en Ingeniería Electrónica de Comunicaciones y en Ingeniería Telemática   Titulaciones de posgrado;3;http://www.madrid.es/sites/v/index.jsp?vgnextchannel=bfa48ab43d6bb410VgnVCM100000171f5a0aRCRD&vgnextoid=db2d578b9671c010VgnVCM1000000b205a0aRCRD;NIKOLA TESLA;AUTOVIA;T;0;;;;;MADRID;MADRID;28030;5;FONTARRON;14;MORATALAZ;444288;4473008;4.040.582.313.350.450;-36.565.743.766.748.800;910 673 200;;info@etsist.upm.es;/contenido/entidadesYorganismos/Universidades/EscuelasUniversitarias; ;
6420;Universidad Politécnica de Madrid. Escuela Técnica Superior de Ingenieros de Caminos, Canales y Puertos;;;;Metro: Ciudad Universitaria (línea 6)  Bus: F, G;Estudios de Grado   Grado en Ingeniería Civil y Territorial Doble grado en Ingeniería civil y Territorial y Administración y Dirección de Empresas Grado en Ingeniería de Materiales Grado en Ingeniería Civil   Titulaciones de postgrado;3;http://www.madrid.es/sites/v/index.jsp?vgnextchannel=bfa48ab43d6bb410VgnVCM100000171f5a0aRCRD&vgnextoid=91ec578b9671c010VgnVCM1000000b205a0aRCRD;PROFESOR ARANGUREN;CALLE;V;3;;;;;MADRID;MADRID;28040;3;CIUDAD UNIVERSITARIA;9;MONCLOA-ARAVACA;437903;4478029;4.044.872.058.026.010;-37.335.842.412.329.600;910 674 024;;secretaria.caminos@upm.es;/contenido/entidadesYorganismos/Universidades/EscuelasUniversitarias; ;
6421;Universidad Politécnica de Madrid. Escuela Técnica Superior de Ingenieros de Minas y Energía;;;;Metro: Ríos Rosas (línea 1)  Bus: 3, 12, 45  Bicimad: Estación130 (calle Santa Engracia, 127);Estudios de grado   Grado en Ingeniería en Tecnología Minera Grado en Ingeniería Geológica Grado en Ingeniería de los Recursos Energéticos, Combustibles y Explosivos Grado en Ingeniería de la Energía   Titulaciones de postgrado;3;http://www.madrid.es/sites/v/index.jsp?vgnextchannel=bfa48ab43d6bb410VgnVCM100000171f5a0aRCRD&vgnextoid=24fc578b9671c010VgnVCM1000000b205a0aRCRD;RIOS ROSAS;CALLE;V;21;;;;;MADRID;MADRID;28003;5;RIOS ROSAS;7;CHAMBERI;440603;4477062;4.044.207.963.042.670;-37.003.900.716.027.700;910 676 602 / 910 676 301;;gabinete.comunicacion.minasyenergia@upm.es;/contenido/entidadesYorganismos/Universidades/EscuelasUniversitarias; ;
6375;Universidad Politécnica de Madrid. Escuela Técnica Superior de Ingenieros de Telecomunicación;;;;Bus: 82, F, G, U  Metro: Ciudad Universitaria (línea 6);Estudios de grado   Grado en Ingeniería de Tecnologías y Servicios de Telecomunicación Grado en Ingeniería Biomédica Grado en Ingeniería y Sistemas de Datos   Titulaciones de postgrado;3;http://www.madrid.es/sites/v/index.jsp?vgnextchannel=bfa48ab43d6bb410VgnVCM100000171f5a0aRCRD&vgnextoid=cdad578b9671c010VgnVCM1000000b205a0aRCRD;COMPLUTENSE;AVENIDA;V;30;;;;;MADRID;MADRID;28040;3;CIUDAD UNIVERSITARIA;9;MONCLOA-ARAVACA;438347;4478292;4.045.299.571.351.180;-37.271.090.498.334.700;910 671 900;;;/contenido/entidadesYorganismos/Universidades/EscuelasUniversitarias; ;
6380;Universidad Politécnica de Madrid. Escuela Técnica Superior de Ingenieros en Topografía, Geodesia y Cartografía;;;;Metro: Sierra de Guadalupe (línea 1)  Bus: 63, 145, E, 54, 58, 103, 142, 143  Cercanías: Vallecas  (C1, C2, C7A);Estudios de grado    Grado en Ingeniería Geomática Grado en Ingeniería de las Tecnologías de la Información Geoespacial Grado en Ingeniería Geomática y Topografía   Titulaciones de postgrado;3;http://www.madrid.es/sites/v/index.jsp?vgnextchannel=bfa48ab43d6bb410VgnVCM100000171f5a0aRCRD&vgnextoid=75ed578b9671c010VgnVCM1000000b205a0aRCRD;ARBOLEDA;CALLE;V;0;;;;CARRETERA DE VALENCIA, KM 7;MADRID;MADRID;28031;4;PALOMERAS SURESTE;13;PUENTE DE VALLECAS;446954;4470889;40.385.027.135.121.800;-36.262.590.221.140.500;913 367 916;;;/contenido/entidadesYorganismos/Universidades/EscuelasUniversitarias; ;
6427;Universidad Politécnica de Madrid. Escuela Técnica Superior de Ingenieros Industriales;;;;Metro: Gregorio Marañón (líneas 7, 10)  Bus: 12, 45, 7, 14, 27, 40, 147, 150  Bicimad: Estación 139 (calle José Gutiérrez Abascal, 2);Estudios de grado    Grado en Ingeniería en Tecnologías Industriales Grado en Ingeniería de Organización Grado en Ingeniería Química   Titulaciones de postgrado;3;http://www.madrid.es/sites/v/index.jsp?vgnextchannel=bfa48ab43d6bb410VgnVCM100000171f5a0aRCRD&vgnextoid=6e3d578b9671c010VgnVCM1000000b205a0aRCRD;JOSE GUTIERREZ ABASCAL;CALLE;V;2;;;;;MADRID;MADRID;28006;1;EL VISO;5;CHAMARTIN;441469;4476872;4.044.043.851.541.710;-36.901.501.583.800.500;910 676 700;;;/contenido/entidadesYorganismos/Universidades/EscuelasUniversitarias; ;
6423;Universidad Politécnica de Madrid. Escuela Técnica Superior de Ingenieros Navales;;;;Metro: Moncloa (líneas 3, 6), Ciudad Universitaria (línea 6)  Bus: 46, 82, 83, 132, 133, 160, 161, 162, G, U;Estudios de grado   Grado en Arquitectura Naval Grado en Ingeniería Marítima   Titulaciones de postgrado;3;http://www.madrid.es/sites/v/index.jsp?vgnextchannel=bfa48ab43d6bb410VgnVCM100000171f5a0aRCRD&vgnextoid=491d578b9671c010VgnVCM1000000b205a0aRCRD;DE LA MEMORIA;AVENIDA;V;4;;;;;MADRID;MADRID;28040;3;CIUDAD UNIVERSITARIA;9;MONCLOA-ARAVACA;438559;4476714;4.043.880.526.313.060;-37.244.447.026.654.000;913 367 140;;informacionyservicios.navales@upm.es;/contenido/entidadesYorganismos/Universidades/EscuelasUniversitarias; ;
6446;Universidad Politécnica de Madrid. Facultad de Ciencias de la Actividad Física y del Deporte (INEF);;;;Metro: Ciudad Universitaria (línea 6), Moncloa (líneas 3 y 6)  Bus: 46, U;Estudios de grado   Grado en Ciencias de la Actividad Física y el Deporte   Titulaciones de postgrado;3;http://www.madrid.es/sites/v/index.jsp?vgnextchannel=bfa48ab43d6bb410VgnVCM100000171f5a0aRCRD&vgnextoid=08fd578b9671c010VgnVCM1000000b205a0aRCRD;MARTIN FIERRO;CALLE;V;7;;;;;MADRID;MADRID;28040;3;CIUDAD UNIVERSITARIA;9;MONCLOA-ARAVACA;437870;4476654;4.043.821.356.803.680;-37.325.621.396.065.900;910 677 850;;;/contenido/entidadesYorganismos/Universidades/Facultades; ;
6429;Universidad Pontificia Comillas. Escuela Técnica Superior de Ingeniería;;;Titulaciones:   Doble grado en Ingeniería de Tecnologías de Telecomunicación y Análisis de negocios Doble grado en Ingeniería de Tecnologías industriales y Administración y Dirección de empresas Grado en Ingeniería en Tecnologías de Telecomunicación Grado en Ingeniería en Tecnologías Industriales Grado en Ingeniería Matemática e Inteligencia Artificial Másteres y postgrados;"Metro: Arg&amp;uuml;elles (líneas 3, 4, 6), San Bernardo (líneas 2, 4).  Bus: 21, C03, 2, 002.  Bicimad: Estación 57 (Calle Santa Cruz del Marcenado, 24).";;3;http://www.madrid.es/sites/v/index.jsp?vgnextchannel=bfa48ab43d6bb410VgnVCM100000171f5a0aRCRD&vgnextoid=424e578b9671c010VgnVCM1000000b205a0aRCRD;ALBERTO AGUILERA;CALLE;V;25;;;;;MADRID;MADRID;28015;5;UNIVERSIDAD;1;CENTRO;439547;4475743;40.430.121.484.779.400;-37.127.036.955.459.500;915 422 800;;;/contenido/entidadesYorganismos/Universidades/EscuelasUniversitarias; ;
6346;Universidad Pontificia Comillas. Facultad de Ciencias Humanas y Sociales;;;Titulaciones:   Bachiller Eclesiástico en Filosofía Doble grado en Ciencias de la Actividad Física y del Deporte y Educación Primaria Doble grado en Criminología y Trabajo social Doble grado en Educación infantil y Educación primaria Doble grado en Filosofía y Filosofía, Política y Economía Doble grado en Psicología y Criminología Doble grado en Psicología y Administración y Dirección de Empresas Doble grado en Relaciones internacionales y Comunicación internacional Doble grado en Traducción e Interpretación y Comunicación internacional Grado en Ciencias de la actividad física y el deporte Grado en Comunicación internacional Grado en Criminología Grado en Educación infantil Grado en Educación primaria Grado en Filosofía Grado en Filosofía, Política y Economía Grado en Psicología Grado en Relaciones Internacionales Grado en Trabajo social Grado en Traducción e Interpretación Postgrados y doctorados;Cercanías Renfe: Universidad Pontificia Comillas (Línea C4).;;3;http://www.madrid.es/sites/v/index.jsp?vgnextchannel=bfa48ab43d6bb410VgnVCM100000171f5a0aRCRD&vgnextoid=676e578b9671c010VgnVCM1000000b205a0aRCRD;UNIVERSIDAD DE COMILLAS;CALLE;V;3;;;;y 5;MADRID;MADRID;28049;8;EL GOLOSO;8;FUENCARRAL-EL PARDO;442188;4489264;40.552.125.920.224.700;-3.682.802.161.256.000;915 422 800;;;/contenido/entidadesYorganismos/Universidades/Facultades; ;
6349;Universidad Pontificia Comillas. Facultad de Derecho Canónico;;Titulaciones:  Grado en Teología Postgrados y doctorados;;"Metro: Arg&amp;uuml;elles (líneas 3, 4, 6), San Bernardo (líneas 2, 4).  Bus: 21, C03, 2, 002.  Bicimad: Estación 57 (Calle Santa Cruz del Marcenado, 24).";;3;http://www.madrid.es/sites/v/index.jsp?vgnextchannel=bfa48ab43d6bb410VgnVCM100000171f5a0aRCRD&vgnextoid=8c8e578b9671c010VgnVCM1000000b205a0aRCRD;ALBERTO AGUILERA;CALLE;V;23;;;;;MADRID;MADRID;28015;5;UNIVERSIDAD;1;CENTRO;439748;4475714;40.429.883.831.913.600;-37.103.315.481.798.400;915 422 800;;;/contenido/entidadesYorganismos/Universidades/Facultades; ;
6348;Universidad Pontificia Comillas. Facultad de Teología;;;Titulaciones:   Grado en Teología Másteres y posgrados;Cercanías Renfe: Universidad Pontificia Comillas (Línea C4).;;3;http://www.madrid.es/sites/v/index.jsp?vgnextchannel=bfa48ab43d6bb410VgnVCM100000171f5a0aRCRD&vgnextoid=1f9e578b9671c010VgnVCM1000000b205a0aRCRD;UNIVERSIDAD DE COMILLAS;CALLE;V;3;;;;y 5;MADRID;MADRID;28049;8;EL GOLOSO;8;FUENCARRAL-EL PARDO;442188;4489264;40.552.125.920.224.700;-3.682.802.161.256.000;915 422 800;;;/contenido/entidadesYorganismos/Universidades/Facultades; ;
11392787;Universidad Pontificia de Comillas. Facultad de Ciencias Económicas y Empresariales;;;Titulaciones. Grados y dobles grados, postgrados y doctorados en las siguientes áreas:   Empresarial Jurídica Ingeniería Social y Humanística Sanitaria Teología y Canónico;"Metro: Arg&amp;uuml;elles (líneas 3, 4, 6), San Bernardo (líneas 2, 4).  Bus: 21, C03, 2, 002.  Bicimad: Estación 57 (Calle Santa Cruz del Marcenado, 24).";;3;http://www.madrid.es/sites/v/index.jsp?vgnextchannel=bfa48ab43d6bb410VgnVCM100000171f5a0aRCRD&vgnextoid=862c3b563a979710VgnVCM1000001d4a900aRCRD;ALBERTO AGUILERA;CALLE;V;23;;;;;MADRID;MADRID;28015;5;UNIVERSIDAD;1;CENTRO;439669;4475725;4.042.996.811.780.780;-3.711.275.575.912.570;915 422 800;;;/contenido/entidadesYorganismos/Universidades/Facultades; ;
6345;Universidad Pontificia de Comillas. Facultad de Derecho;;;Titulaciones:   Doble Grado en Administración y Dirección de Empresas y Derecho. Doble Grado en Análisis de Negocios / Business Analytics y Derecho. Doble Grado en Derecho y en Filosofía, Política y Economía. Doble Grado en Derecho y Relaciones Internacionales. Grado en Derecho. Postgrados y doctorados.;"Metro: Arg&amp;uuml;elles (líneas 3, 4, 6), San Bernardo (líneas 2, 4).  Bus: 21, C03, 2, 002.  Bicimad: Estación 57 (Calle Santa Cruz del Marcenado, 24).";;3;http://www.madrid.es/sites/v/index.jsp?vgnextchannel=bfa48ab43d6bb410VgnVCM100000171f5a0aRCRD&vgnextoid=f97e578b9671c010VgnVCM1000000b205a0aRCRD;ALBERTO AGUILERA;CALLE;V;23;;;;;MADRID;MADRID;28015;5;UNIVERSIDAD;1;CENTRO;439669;4475725;4.042.996.811.780.780;-3.711.275.575.912.570;915 422 800;;;/contenido/entidadesYorganismos/Universidades/Facultades; ;
4961029;Universidad Pontificia de Salamanca. Facultad de Enfermería y Fisioterapia;;;Titulaciones:   Grado en Enfermería Grado en Fisioterapia;"Metro: Arg&amp;uuml;elles (líneas 3, 4 y 6).  Bus: 001, 1, 133, 138, 44, C1, 21, C2, C03, 002.  Bicimad: Estaciones 123 (calle Guzmán el Bueno, 1), 111a (calle Arcipreste de Hita, 12).";;3;http://www.madrid.es/sites/v/index.jsp?vgnextchannel=bfa48ab43d6bb410VgnVCM100000171f5a0aRCRD&vgnextoid=7b854a220362b110VgnVCM2000000c205a0aRCRD;GAZTAMBIDE;CALLE;V;12;;;;;MADRID;MADRID;28015;1;GAZTAMBIDE;7;CHAMBERI;439303;4475960;404.320.681.305;-37.155.984.461.035.700;910 053 661;;;/contenido/entidadesYorganismos/Universidades; ;
